{
  "type": "FeatureCollection",
  "crs": { "type": "name", "properties": { "name": "EPSG:4283" } },
  "features": [
    {
      "type": "Feature",
      "id": 1,
      "geometry": {
        "type": "MultiPolygon",
        "coordinates": [
          [
            [
              [149.10398069415373, -35.275171897764835],
              [149.1041196268194, -35.275159792890065],
              [149.10411972844281, -35.275160543823972],
              [149.10411982556957, -35.275161265979591],
              [149.10416966689672, -35.275529770382548],
              [149.10423957209866, -35.276069732332246],
              [149.10424500040654, -35.27613994330369],
              [149.10424525401538, -35.2761432159366],
              [149.1042496310157, -35.276199819266196],
              [149.10425153937706, -35.276242672861031],
              [149.10425164909441, -35.276245144198015],
              [149.10426966341436, -35.276649759978397],
              [149.10428961217588, -35.277089726309782],
              [149.10438960779425, -35.277749800812614],
              [149.10450963671042, -35.277689787253848],
              [149.10505965757716, -35.277479736200803],
              [149.10532963855201, -35.27736976530241],
              [149.10552963068801, -35.277309750844267],
              [149.10564965960418, -35.277289802082635],
              [149.10574965612182, -35.277279744064913],
              [149.10583959372229, -35.277289718445729],
              [149.10595962263858, -35.277309750844267],
              [149.10605961825684, -35.277319726124404],
              [149.10632968376797, -35.277389714063986],
              [149.10678959886093, -35.277499768599398],
              [149.10704960635428, -35.277599765117031],
              [149.10715965999043, -35.277669753955934],
              [149.10724959669164, -35.277739742794836],
              [149.10731967006677, -35.277819789651517],
              [149.10738965890573, -35.277899752871235],
              [149.10741966568514, -35.27797971699033],
              [149.10745964774458, -35.278059763846954],
              [149.10748965542336, -35.278129752685913],
              [149.10749962980412, -35.278209800441914],
              [149.10750955831952, -35.278279386384554],
              [149.107509604185, -35.278279704744534],
              [149.10749962980412, -35.278369726881351],
              [149.10748965542336, -35.278439714820934],
              [149.10746962212545, -35.278519762576934],
              [149.10738965890573, -35.278719754712881],
              [149.10728966328736, -35.279009768985588],
              [149.10723962321015, -35.279159721044266],
              [149.10722969829203, -35.2792393793938],
              [149.10722964882927, -35.279239767900947],
              [149.10723962321015, -35.279309756739849],
              [149.10723962321015, -35.279388989710071],
              [149.10723962410941, -35.279389719959568],
              [149.10726962998945, -35.279479742096385],
              [149.10729963676886, -35.279559788953065],
              [149.10733961882841, -35.279629777791968],
              [149.10739963418587, -35.279719716291822],
              [149.10747959560695, -35.279809738428639],
              [149.10755964426221, -35.279879726368222],
              [149.10763960658267, -35.279919792064732],
              [149.10772962871943, -35.279969747605719],
              [149.10779961755838, -35.27999975528445],
              [149.10788963969514, -35.280029762063805],
              [149.10799960969428, -35.280059769742536],
              [149.1081196404092, -35.280079719403489],
              [149.10822961040822, -35.280079719403489],
              [149.10831963074645, -35.280079719403489],
              [149.10840965288321, -35.280069744123352],
              [149.10864962707865, -35.280039737343941],
              [149.10916964026671, -35.27995968958794],
              [149.10947960330111, -35.279939740826308],
              [149.10954967577698, -35.279939740826308],
              [149.10962963899669, -35.279959774124222],
              [149.10969962873492, -35.279979805623498],
              [149.11001964888771, -35.28004979536172],
              [149.11021964102372, -35.280099750902764],
              [149.11035961870152, -35.279939740826308],
              [149.11065960735505, -35.2796497265536],
              [149.11083964983004, -35.279429785656021],
              [149.11088960716972, -35.279339764418523],
              [149.11093964724694, -35.279209761121535],
              [149.11095959510931, -35.279109764603902],
              [149.11096957038944, -35.279039775765],
              [149.11096957128871, -35.279039046414823],
              [149.11096965402635, -35.278949753628183],
              [149.11093964814631, -35.278629732576064],
              [149.11073965331241, -35.277119733089194],
              [149.11073970817108, -35.277119410232558],
              [149.11078960975271, -35.276819745334933],
              [149.11078961514863, -35.276819015085437],
              [149.11079966417321, -35.276079791249344],
              [149.11072959619401, -35.27512978611071],
              [149.11063965769415, -35.274769782999044],
              [149.11049968001623, -35.274489744006416],
              [149.11038962458156, -35.274449761946926],
              [149.10994957641185, -35.271079734242278],
              [149.10937960678348, -35.27072978914839],
              [149.10841962726408, -35.27059970221444],
              [149.10841962726408, -35.270598971964944],
              [149.10841962726408, -35.270469782554358],
              [149.10826967520541, -35.270549745774133],
              [149.10817965216927, -35.270589727833624],
              [149.10802961737306, -35.270669774690305],
              [149.10782962523706, -35.270779745588754],
              [149.10728966328736, -35.271049726563604],
              [149.10623966163109, -35.271449710835441],
              [149.10568963986509, -35.271689768667841],
              [149.10470962884631, -35.272119759719089],
              [149.1041537210175, -35.272100224645612],
              [149.10413956838647, -35.272099737213068],
              [149.10401881461667, -35.272227690955106],
              [149.10400694626367, -35.272240262578009],
              [149.10400674301684, -35.272240446039689],
              [149.10396967476072, -35.272279770694809],
              [149.10325589274532, -35.272774484155093],
              [149.10325149416121, -35.272777601205291],
              [149.10340620633144, -35.272925081027608],
              [149.10368496289084, -35.273181404897855],
              [149.10374838757809, -35.27323972503325],
              [149.10393111812664, -35.273327807332407],
              [149.10412260627334, -35.273416607290528],
              [149.10412960209953, -35.273419793588573],
              [149.10391963468351, -35.273769737783141],
              [149.10394964236218, -35.274019769996357],
              [149.10396056732634, -35.274112472112847],
              [149.10396113479862, -35.274117295177007],
              [149.10396870798957, -35.274181522958884],
              [149.10396959202308, -35.274187821810472],
              [149.10397962575917, -35.274439702130508],
              [149.10401290427217, -35.27458409727825],
              [149.10408968838851, -35.274889809217257],
              [149.10408609020101, -35.274889975591861],
              [149.10408480237174, -35.274890037645093],
              [149.10390966030263, -35.274899665786904],
              [149.10391425673765, -35.274911996391495],
              [149.10391488356504, -35.274913675425751],
              [149.1039395843444, -35.274979750415127],
              [149.10397037803057, -35.275132220575472],
              [149.10397090593267, -35.275134385243632],
              [149.10398069415373, -35.275171897764835]
            ]
          ],
          [
            [
              [149.10377681334933, -35.2719121943922],
              [149.10377928378693, -35.271913501107122],
              [149.10397964914159, -35.272019788382465],
              [149.1039974125506, -35.272020009615687],
              [149.10399870127912, -35.272020032098737],
              [149.10468959734715, -35.272029739380912],
              [149.10569961604449, -35.271589773049527],
              [149.10618962155388, -35.271369747615722],
              [149.10683963803888, -35.271119716301826],
              [149.10722964882927, -35.270969763343885],
              [149.10840965288321, -35.270349753638186],
              [149.10840850984493, -35.270349625035124],
              [149.10795160658142, -35.270297893333066],
              [149.10787968330078, -35.270289720294329],
              [149.10746591781788, -35.269960518063442],
              [149.10744761931221, -35.26996690684723],
              [149.10720961643074, -35.270049765883925],
              [149.10682954314893, -35.270123931174453],
              [149.10638961368977, -35.270209775960325],
              [149.10530960615347, -35.270269791317787],
              [149.10514346090201, -35.270592250431946],
              [149.10513962169625, -35.27059970221444],
              [149.1051396441793, -35.270600212130034],
              [149.10514973457271, -35.270812176940353],
              [149.1051499746917, -35.270817240123506],
              [149.10517960285642, -35.271439737353944],
              [149.1049967787784, -35.271455772266052],
              [149.10474097741428, -35.271484380599645],
              [149.10456965206788, -35.271509726192846],
              [149.10437963431275, -35.271509726192846],
              [149.1041096533379, -35.271509726192846],
              [149.10389960228486, -35.271509726192846],
              [149.10376191967691, -35.27150971270305],
              [149.10375832508669, -35.271614196837675],
              [149.10374862409981, -35.27189839429542],
              [149.10375961201657, -35.271903092353796],
              [149.10377681334933, -35.2719121943922]
            ]
          ],
          [
            [
              [149.10568964076435, -35.277559699420522],
              [149.1055896451461, -35.277579731819117],
              [149.10548964862846, -35.277609738598528],
              [149.10495993085624, -35.277809630010381],
              [149.1049596619589, -35.277809731633738],
              [149.10513934200708, -35.278229097195037],
              [149.10513962079688, -35.278229749203547],
              [149.10456965206788, -35.278389759279946],
              [149.10440964109216, -35.278099745007182],
              [149.10435960101483, -35.278149785084452],
              [149.10432967787244, -35.278209715905632],
              [149.10429958655675, -35.278269730363718],
              [149.10420964895616, -35.278619759094568],
              [149.10417964217686, -35.278709696695103],
              [149.10414963359881, -35.278789743551783],
              [149.1041196268194, -35.278849758009869],
              [149.10408962003999, -35.278899713550913],
              [149.10403966359968, -35.278959728908319],
              [149.10398962442173, -35.279009768985588],
              [149.10394964236218, -35.279059725425952],
              [149.10385962112468, -35.279129797901817],
              [149.10376968262483, -35.279189727823621],
              [149.10368963576809, -35.279229709883168],
              [149.10358964014983, -35.279279749960438],
              [149.10350967603074, -35.279309756739849],
              [149.10343960265561, -35.279339764418523],
              [149.10335964033516, -35.27934973879934],
              [149.1032795943778, -35.279369771197935],
              [149.10318965497868, -35.279379745578751],
              [149.10223964984004, -35.279449735316973],
              [149.10215960208404, -35.27945970879847],
              [149.10208961414446, -35.279469684078606],
              [149.10200965092474, -35.279479742096385],
              [149.10193966208578, -35.279489800114163],
              [149.10185961522916, -35.279499775394299],
              [149.1017896263902, -35.279529697637372],
              [149.10052965821717, -35.279859776707269],
              [149.10045958484204, -35.279879726368222],
              [149.10037962162232, -35.279909734046953],
              [149.1003096318841, -35.279939740826308],
              [149.10023964394452, -35.279979721986535],
              [149.10015959708778, -35.280039737343941],
              [149.09946968307952, -35.280579782930602],
              [149.09942961828233, -35.280629739370909],
              [149.09937966094265, -35.280699728209868],
              [149.09932962086543, -35.280839705887672],
              [149.09932901831962, -35.280841366036157],
              [149.09928963880589, -35.280949760423084],
              [149.09929938475887, -35.28095881299879],
              [149.10108853380882, -35.282620833884323],
              [149.10112634310633, -35.282655956906865],
              [149.101259637922, -35.282779780962073],
              [149.10136511490816, -35.283136744365208],
              [149.10136667343329, -35.28314201709037],
              [149.10138964121904, -35.283219747293458],
              [149.10142403309271, -35.283363030879116],
              [149.10142636503474, -35.283372745355848],
              [149.10144965657651, -35.283469778607355],
              [149.10146968897504, -35.28352979396476],
              [149.10149763900495, -35.283613802335083],
              [149.10149961211744, -35.283619731565295],
              [149.10150098088559, -35.283623569871793],
              [149.10154956765848, -35.283759792880119],
              [149.10155167297137, -35.283782818222448],
              [149.10155176740022, -35.283783841650916],
              [149.10155876772296, -35.283860388346227],
              [149.10155962567626, -35.283869763778512],
              [149.10163958979535, -35.283839756999157],
              [149.1017196357526, -35.28379977493961],
              [149.10181963316961, -35.283759792880119],
              [149.10187964672843, -35.283739759582204],
              [149.10193966208578, -35.283699779321296],
              [149.10198961762683, -35.283669771642622],
              [149.10204963208491, -35.28363976396389],
              [149.1020995894246, -35.283599782803662],
              [149.10215960298331, -35.283569775124988],
              [149.10220964306063, -35.283529710327798],
              [149.10231961395914, -35.283449747108079],
              [149.10242966759517, -35.283369782989041],
              [149.1025396375943, -35.28328973613236],
              [149.10265966740974, -35.283229721674275],
              [149.10277961178974, -35.283159732835372],
              [149.10289964070591, -35.28309971837723],
              [149.10301966962209, -35.283039787556106],
              [149.10314967381851, -35.28297977309802],
              [149.10327959257916, -35.282929733020694],
              [149.1034095958762, -35.282879776580387],
              [149.10354965809029, -35.282829737402437],
              [149.10367966138733, -35.282789756242209],
              [149.10381963996451, -35.282749774182662],
              [149.10395961674294, -35.282719767403307],
              [149.10409967805776, -35.28267978534376],
              [149.10423957209866, -35.282649777665085],
              [149.10437963431275, -35.28262974526649],
              [149.10644962904723, -35.282309724214372],
              [149.10661961440371, -35.282289774553419],
              [149.10678959886093, -35.282249709756229],
              [149.10695958421752, -35.282209727696738],
              [149.10711959429386, -35.282169745637191],
              [149.10728966328736, -35.282119705559921],
              [149.1074495897268, -35.282069750018877],
              [149.10760968433954, -35.28201979357857],
              [149.10775963639821, -35.281959779120484],
              [149.10791964737393, -35.281889791180902],
              [149.1080695994325, -35.281819717805661],
              [149.10820957711042, -35.281749728966759],
              [149.108359612806, -35.28166976574704],
              [149.10849959138307, -35.281589801628002],
              [149.10863965179851, -35.281499781289824],
              [149.10876965599493, -35.281409759153007],
              [149.10889965929186, -35.28131973701619],
              [149.10903963696978, -35.281219741397877],
              [149.1091496069688, -35.2811197448803],
              [149.10926963588508, -35.281019749261986],
              [149.10937960678348, -35.280909778363537],
              [149.10997966682828, -35.280329750717385],
              [149.10997907057777, -35.280329597832633],
              [149.10958965693715, -35.280229755099072],
              [149.10952964337844, -35.280229755099072],
              [149.10945965364022, -35.280219779818935],
              [149.10935965802184, -35.280219779818935],
              [149.10924960258717, -35.280229755099072],
              [149.10843957602572, -35.280339725098202],
              [149.1083796461038, -35.2803497840153],
              [149.10830965726495, -35.2803497840153],
              [149.10823966842599, -35.2803497840153],
              [149.10816959505087, -35.2803497840153],
              [149.10809960621191, -35.2803497840153],
              [149.10802961737306, -35.280339725098202],
              [149.10793967977247, -35.280329750717385],
              [149.10783959961793, -35.28030971831879],
              [149.10775963639821, -35.280289768657838],
              [149.10766961516072, -35.280259761878483],
              [149.10758965104162, -35.280219779818935],
              [149.107509604185, -35.280179715021802],
              [149.10743961534604, -35.280139732962255],
              [149.10735965212632, -35.280099750902764],
              [149.10729963586959, -35.280039737343941],
              [149.10721958991223, -35.279979805623498],
              [149.10716963437119, -35.279929766445548],
              [149.1071096199131, -35.279859776707269],
              [149.10706963785356, -35.279789705130725],
              [149.10701959777623, -35.279729774309601],
              [149.1069796157168, -35.2796497265536],
              [149.10694960893738, -35.279579737714698],
              [149.10692966017575, -35.279519724155875],
              [149.10690962777721, -35.279429785656021],
              [149.10689965339634, -35.279369771197935],
              [149.1068996515977, -35.279369040948438],
              [149.10689965339634, -35.279279749960438],
              [149.1068996515977, -35.279279019710941],
              [149.10689965339634, -35.279179754342124],
              [149.10690962777721, -35.279099790223086],
              [149.10691960215797, -35.279019743366405],
              [149.10694960893738, -35.278949753628183],
              [149.10714968471029, -35.278419766059301],
              [149.10716963527057, -35.278309712423265],
              [149.10716958041189, -35.278309279849339],
              [149.10715965909105, -35.278229749203547],
              [149.10714960197265, -35.278159760364588],
              [149.10711967793088, -35.278089770626366],
              [149.10707961313369, -35.278019781787464],
              [149.10702965579401, -35.277969741710194],
              [149.10695966695516, -35.277889779389739],
              [149.10686964571767, -35.277839739312469],
              [149.10678959886093, -35.277799757252978],
              [149.10672958440284, -35.277779723955064],
              [149.10591964057903, -35.277579731819117],
              [149.10583967825858, -35.277559783057484],
              [149.10575962960331, -35.277559783057484],
              [149.10568964076435, -35.277559699420522]
            ]
          ]
        ]
      },
      "properties": {
        "OBJECTID": 1,
        "OBJECTID_1": 8427,
        "PA_ID": "CWTH_01",
        "PA_PID": "CWTH_01",
        "NAME": "Australian National",
        "TYPE": "Botanic Gardens (Commonwealth)",
        "TYPE_ABBR": "BG_COM",
        "IUCN": "IV",
        "NRS_PA": "Y",
        "NRS_MPA": " ",
        "GAZ_AREA": 0,
        "GIS_AREA": 84.410719240000006,
        "GAZ_DATE": 332121600000,
        "LATEST_GAZ": 685065600000,
        "STATE": "ACT",
        "AUTHORITY": "DCCEEW",
        "DATASOURCE": "DCCEEW",
        "GOVERNANCE": "G",
        "COMMENTS": " ",
        "ENVIRON": "T",
        "OVERLAP": "1",
        "MGT_PLAN": "M",
        "RES_NUMBER": "CWTH01",
        "ZONE_TYPE": " ",
        "EPBC": "Commonwealth",
        "LONGITUDE": 149.10743878,
        "LATITUDE": -35.275284769999999,
        "PA_SYSTEM": "NRS",
        "SHAPE_Leng": 0.070452365546592996,
        "Shape_Length": 0.070452367806464244,
        "Shape_Area": 8.3626567716400666e-5
      }
    }
  ]
}
