{"type":"FeatureCollection","crs":{"type":"name","properties":{"name":"EPSG:4283"}},"features":[{"type":"Feature","id":1,"geometry":{"type":"Polygon","coordinates":[[[150.67468950661555,-35.140864940064887],[150.67400663339947,-35.140763350847919],[150.6726697192322,-35.142414586164193],[150.66999119913464,-35.141950899314509],[150.66939155727459,-35.142236721847212],[150.66746154021803,-35.143790895133634],[150.66646996032046,-35.143929867369422],[150.66592899202942,-35.14438885975801],[150.66700053604598,-35.14551924281875],[150.66731183907018,-35.147793588703109],[150.66710472160571,-35.1483493085737],[150.66785020832049,-35.148520132098383],[150.66858454703925,-35.149988138641618],[150.66848765228337,-35.15080654778393],[150.66966061644439,-35.150118561022737],[150.67025757472732,-35.149333846779541],[150.67096618114442,-35.148791873945754],[150.67369667036508,-35.148387530659988],[150.6762575087771,-35.148595401756324],[150.67707063710031,-35.14839641506245],[150.67786608025551,-35.147776321719846],[150.67916703503067,-35.147543975573967],[150.67912059943615,-35.146289037309202],[150.68029096365706,-35.144634282046411],[150.67940566833704,-35.144387854315994],[150.67468950661555,-35.140864940064887]],[[150.67112443124756,-35.145474651733764],[150.67218289822222,-35.14586005080065],[150.67344236277484,-35.146785749063042],[150.67370228573202,-35.147354209629043],[150.67358217407809,-35.147919820243487],[150.67230904612563,-35.148093660993595],[150.67173094482735,-35.147938260842011],[150.66939490904792,-35.148416197449535],[150.66930153513783,-35.14813506757929],[150.6694690050906,-35.147552189981525],[150.66926792387562,-35.146980544016856],[150.66847767790262,-35.146095247797405],[150.66876894942754,-35.145185979249504],[150.66867691640664,-35.144611817881071],[150.66877590568356,-35.144334209755925],[150.66905074839337,-35.144204290095843],[150.6701849041101,-35.145181620235519],[150.67112443124756,-35.145474651733764]]]},"properties":{"OBJECTID":1,"OBJECTID_1":5673,"PA_ID":"CWTH_02","PA_PID":"CWTH_02","NAME":"Booderee","TYPE":"Botanic Gardens (Commonwealth)","TYPE_ABBR":"BG_COM","IUCN":"IV","NRS_PA":"Y","NRS_MPA":" ","GAZ_AREA":80,"GIS_AREA":67.333349060000003,"GAZ_DATE":699148800000,"LATEST_GAZ":699148800000,"STATE":"JBT","AUTHORITY":"DCCEEW","DATASOURCE":"DCCEEW","GOVERNANCE":"J","COMMENTS":" ","ENVIRON":"T","OVERLAP":"1","MGT_PLAN":"M","RES_NUMBER":"CWTH02","ZONE_TYPE":" ","EPBC":"Commonwealth","LONGITUDE":150.67577688,"LATITUDE":-35.145784949999999,"PA_SYSTEM":"NRS","SHAPE_Leng":0.055690755352026999,"Shape_Length":0.055358290985902454,"Shape_Area":6.6807114255599528e-05,"InPoly_FID":1,"MaxSimpTol":8.9932204607556584e-05,"MinSimpTol":8.9932204607556584e-05}},{"type":"Feature","id":2,"geometry":{"type":"Polygon","coordinates":[[[150.69282157655459,-35.193037758685591],[150.69214091657011,-35.193252872022356],[150.6916736414255,-35.193072791775876],[150.69120277258992,-35.193415584561535],[150.69130779002251,-35.193588867731989],[150.69159546785659,-35.193513122332661],[150.69174012920371,-35.193840426994086],[150.69209593517928,-35.193684811904518],[150.6924696241739,-35.194070507747711],[150.69264269960092,-35.194560640061468],[150.6925171128745,-35.195126312729087],[150.69185854023954,-35.195898372611737],[150.69195132239565,-35.196116511267917],[150.69167510192449,-35.196174436600927],[150.69202737985972,-35.196343344569641],[150.69186110240798,-35.196989405836348],[150.69211006892465,-35.19712112683851],[150.69213499363514,-35.197409299299693],[150.69240619678862,-35.197531600802677],[150.6924977180953,-35.197794787399459],[150.69275248433974,-35.197718423266565],[150.69320505466965,-35.198033470168468],[150.69328711510832,-35.1982423835791],[150.69359275600095,-35.19831122578239],[150.69394841808514,-35.199345763596057],[150.69415374410005,-35.19946682403463],[150.69412426432336,-35.19973675734542],[150.69423079261708,-35.199855974173829],[150.69438725666657,-35.199759726030493],[150.69459900923698,-35.200439916568826],[150.69482459427968,-35.20022775840431],[150.69495483859498,-35.20028429338538],[150.69491513622461,-35.200526991627328],[150.69538943237649,-35.200851450833738],[150.69586984481759,-35.200166199810212],[150.69595216605967,-35.20036609841668],[150.69610987207295,-35.200224792440167],[150.69604971462275,-35.200413004356619],[150.69634168761888,-35.200184047755556],[150.69635587172615,-35.20046382594478],[150.69658692914356,-35.200450117578839],[150.69705856060421,-35.20008026689078],[150.69697448928127,-35.199943446732618],[150.69729195356092,-35.199192019995678],[150.69776157503668,-35.19889425896281],[150.69740679428821,-35.198617121183133],[150.69760369365565,-35.198251143875154],[150.69712017855352,-35.197863399376331],[150.69667611401155,-35.197241978634338],[150.697409625354,-35.197724562938163],[150.69768334211267,-35.197756729889136],[150.69876757196596,-35.196686053718338],[150.699915322734,-35.196491131060782],[150.70068478717326,-35.196866174434376],[150.70214049009167,-35.195468797946603],[150.70214450556455,-35.19492789440676],[150.70193494104478,-35.194563320041141],[150.69933334895495,-35.192857269247554],[150.69903155176473,-35.192505169378023],[150.70104850628366,-35.193654136029522],[150.70244294558552,-35.19406789791509],[150.7030223068341,-35.193772170249417],[150.70357294913231,-35.193719337777168],[150.70417076716728,-35.193153453768844],[150.70475035504489,-35.192848702305696],[150.70496019655593,-35.19201410087004],[150.70571591665635,-35.191297877195211],[150.70606995456478,-35.191205299185185],[150.70633640659992,-35.191498789337629],[150.70713778258266,-35.191513734271382],[150.70718643590533,-35.191343330730092],[150.70779069758271,-35.19093984180023],[150.70787301432824,-35.190346305437629],[150.70761233683993,-35.190184301564216],[150.7082113033091,-35.189631295847562],[150.70815291662382,-35.1893597185761],[150.70836522227728,-35.188831716710297],[150.70899041657458,-35.188464676403669],[150.70967325291838,-35.188396246989157],[150.71022732702954,-35.187820502813906],[150.71024403283593,-35.187613438409414],[150.71055662728656,-35.1874299182561],[150.71063592770599,-35.186944512779007],[150.7103706978495,-35.186209247758541],[150.71009826082616,-35.186132043658858],[150.70990115281597,-35.185713626882318],[150.7098871458752,-35.185028116854085],[150.71033120502113,-35.184856062157507],[150.71062929880316,-35.184401781317092],[150.71090675224491,-35.185092186355291],[150.71111431487384,-35.185132109958886],[150.71118518504829,-35.185349821437057],[150.71165593787134,-35.185403671042536],[150.71152770623871,-35.185275051802137],[150.71168859944942,-35.185016567760329],[150.71165538658693,-35.184628254890015],[150.71199215301556,-35.184364027777633],[150.71198413286152,-35.18385896042264],[150.71239925542136,-35.183938812126428],[150.71251207627142,-35.183488807562355],[150.71316104144898,-35.182997253420467],[150.71310662706924,-35.182581484248033],[150.71353939342828,-35.182021507886247],[150.71419843191222,-35.181619001016031],[150.71417577079524,-35.182042350573965],[150.71458512600282,-35.181932749296891],[150.7151860080279,-35.181249655746967],[150.71528756217128,-35.180809738878281],[150.71577921074208,-35.180844634372363],[150.71576924175713,-35.181206384866698],[150.71615390787656,-35.181195494976066],[150.71660085294707,-35.180518554587593],[150.71661759472624,-35.180708208117267],[150.7169512899701,-35.180155393056907],[150.71724212892116,-35.179962430921421],[150.71721783643409,-35.179249690320887],[150.71770605319182,-35.179466125661122],[150.71832932743655,-35.178765398204519],[150.71987804633488,-35.177955602768805],[150.72037633909679,-35.177940093960103],[150.72107699640628,-35.177085210114285],[150.72100240034058,-35.177002674833545],[150.72128563372507,-35.176286625627199],[150.72170907321527,-35.17566332080554],[150.72270810309658,-35.175672811351092],[150.72283154943648,-35.175575912997942],[150.72280580364497,-35.175313963868291],[150.72337842897139,-35.174855714319733],[150.72402172302418,-35.173762706183879],[150.72404652902412,-35.173319525675538],[150.72431436691454,-35.17276321584967],[150.72411276858952,-35.172507027777044],[150.72435941215724,-35.172322253069467],[150.72567411217062,-35.172030998631612],[150.72675115374284,-35.171996807306755],[150.72846362479652,-35.172416153982283],[150.72930882564185,-35.172828483247883],[150.72985967658292,-35.17316323699373],[150.73024146217381,-35.173657161748565],[150.73029990641567,-35.173928728228191],[150.72974867506139,-35.174008722924157],[150.72978517134868,-35.174279880212282],[150.73000641356521,-35.174220857706359],[150.73000998387374,-35.174491410650035],[150.73039411579589,-35.174498496408432],[150.73066382877278,-35.17413981260222],[150.73082586861904,-35.174371220755177],[150.7308433604328,-35.174746513240962],[150.73058266675673,-35.175232300929906],[150.73179089243581,-35.175140978373406],[150.7314435733623,-35.175473589934199],[150.73142667330239,-35.175689670941495],[150.73190958855673,-35.175412191419468],[150.73166666098768,-35.17574819342434],[150.73187297535765,-35.175833147881406],[150.73169070256392,-35.176073226398216],[150.7318179764186,-35.176237865285202],[150.73146539181448,-35.1766821762414],[150.73130149666679,-35.177454558081365],[150.73153655157068,-35.178495771562552],[150.73258802541716,-35.178596304975429],[150.73330135507354,-35.179015184902823],[150.7339993836647,-35.179190341361107],[150.73511116964482,-35.179093607583866],[150.73558869616147,-35.179300760121919],[150.73562694342877,-35.179508837163041],[150.73597374089547,-35.179677514905336],[150.73683209612443,-35.179612161172258],[150.73698321190579,-35.180110840642726],[150.73733345917185,-35.180153342602637],[150.73748304340779,-35.179903637742655],[150.73782379832971,-35.179891872811652],[150.73829167781878,-35.179648023437494],[150.73835222107823,-35.179441762127567],[150.73881321265969,-35.179450238237848],[150.73912644293102,-35.179239601726181],[150.7392348193315,-35.178889962401797],[150.73902023389678,-35.177497506104999],[150.73878663499522,-35.177204691343377],[150.73969204814955,-35.177022967136168],[150.74002141135907,-35.176623292231113],[150.740981782983,-35.176036836230992],[150.74132308559194,-35.175601311651178],[150.74132291472085,-35.175204587421717],[150.74116540206171,-35.174940220015117],[150.74009958312934,-35.173930797568232],[150.74099869833128,-35.174550211023359],[150.74204174373153,-35.175019422408354],[150.74255128341508,-35.174857469796336],[150.74316223604842,-35.175003927988826],[150.74363933988366,-35.17482334142403],[150.74488031077783,-35.174819043563957],[150.74553394703412,-35.175011350993032],[150.74626648441074,-35.174321508031142],[150.7459326569666,-35.173675230927131],[150.74622978038008,-35.173247895573866],[150.74620323059469,-35.173012989957499],[150.74661372344463,-35.172858215734038],[150.74689124343615,-35.173151818301733],[150.7472117420283,-35.173076544147136],[150.74747180887698,-35.172396066725071],[150.74782884872241,-35.172591949858543],[150.74823154714829,-35.172319820403345],[150.74845052487194,-35.17274759102844],[150.74855468435123,-35.172551135026822],[150.74874200414024,-35.172527520628535],[150.7488560004042,-35.171564863827371],[150.74907969687058,-35.171009947950722],[150.74951192093852,-35.170458838904267],[150.74958779943745,-35.17009056202977],[150.74989778855218,-35.169997057717978],[150.75018237091979,-35.170435039245604],[150.75038802698589,-35.169735531269737],[150.75056677533644,-35.170027326200113],[150.751052385859,-35.169531288937776],[150.75123551480726,-35.170066598694518],[150.75143504738958,-35.169592388877618],[150.75165943363606,-35.169416160427431],[150.75148581142116,-35.16893512565548],[150.75156752022497,-35.168756290970009],[150.75276059862279,-35.168895309071218],[150.75388951398998,-35.169781490223556],[150.75417363590464,-35.170237492366311],[150.75499406582355,-35.170757385944569],[150.7552094300712,-35.170508857397806],[150.75548989534241,-35.170694305697623],[150.75658520933996,-35.168361029038238],[150.75763463543012,-35.167721975288885],[150.75705760162703,-35.167540144961663],[150.75685591606771,-35.167689750781335],[150.75709637859507,-35.167730194193041],[150.75663813534175,-35.168028394994394],[150.75568649433626,-35.168299555879742],[150.75551699731159,-35.168071056134295],[150.75589233836081,-35.167996761341442],[150.75718051376975,-35.167055505706969],[150.75717416905275,-35.166478346898145],[150.75741073301901,-35.166257254868356],[150.75771995411264,-35.165379301613427],[150.75807942032907,-35.165079296772092],[150.75825572072495,-35.164243991167211],[150.75853201044401,-35.163771167205539],[150.75847323435232,-35.163508622724692],[150.7594613356722,-35.161885657596997],[150.75938987014649,-35.161685998210203],[150.75919283228347,-35.161664379407569],[150.7594305851535,-35.161398217853446],[150.7591942765946,-35.161204570434506],[150.75978977078137,-35.160701495077888],[150.75987167743608,-35.160107903856613],[150.76020281860531,-35.159636076343816],[150.7602249841957,-35.159221728999569],[150.75931702236278,-35.159100002163314],[150.75865965571859,-35.158643220308306],[150.7586367221071,-35.15827313040063],[150.75816389814543,-35.158300583105358],[150.75778883588612,-35.157960140248235],[150.75782173938182,-35.157555009156283],[150.75831722086309,-35.157095187592802],[150.75857154014454,-35.156621958936228],[150.7581289621819,-35.156749136563349],[150.75806091408003,-35.156423313085384],[150.75790874699112,-35.156366439959186],[150.75812574620625,-35.155649091232533],[150.75793601533485,-35.15535711284042],[150.75868113872366,-35.153783814571341],[150.7599115012149,-35.152940671374836],[150.76080101705338,-35.15292981655773],[150.76149812743665,-35.152726117416364],[150.76231299055212,-35.152227010767888],[150.76264868139162,-35.15158394874021],[150.76246944201125,-35.151310199605973],[150.76202737756148,-35.151419370107817],[150.76212999110624,-35.150871236918022],[150.76176081041308,-35.150720256934278],[150.76180883421034,-35.150567855122347],[150.76211703637216,-35.15053739958131],[150.76215433035816,-35.150375780617765],[150.76191634006716,-35.150245224237665],[150.76176706160072,-35.149674484789614],[150.76151102101687,-35.149399330914321],[150.76173817717518,-35.148303476424246],[150.76161841355895,-35.147859496418562],[150.76194347621049,-35.145575261588988],[150.76231915000881,-35.145077191858888],[150.76207867309233,-35.14422528297041],[150.76226143062058,-35.143146640604925],[150.76274462106744,-35.142731667332555],[150.76285672335916,-35.142237806429591],[150.76352786401981,-35.141772150963959],[150.76356878766944,-35.141475354004342],[150.76336786383592,-35.141192195263557],[150.76347389120713,-35.140923634318199],[150.76372812055638,-35.140450396668427],[150.76467935326957,-35.139773433796904],[150.76472730961768,-35.139215284857471],[150.76498249944291,-35.13870599428617],[150.76409090976779,-35.138392254998507],[150.76390431663094,-35.13757738828582],[150.76411702697931,-35.136607491942129],[150.76434129631389,-35.136431242807589],[150.76476002065851,-35.135555252772633],[150.76482943213261,-35.135015536337903],[150.76512707985091,-35.134966852438254],[150.76520236659599,-35.134616577293173],[150.76505363761532,-35.134433548169682],[150.7647684050379,-35.134428362678761],[150.76464550458638,-35.134101541852658],[150.76430936228735,-35.13435691064285],[150.7637069676025,-35.134309888690382],[150.76352605638249,-35.134099226098385],[150.7634618438891,-35.133223470786504],[150.76373581335713,-35.132831734197111],[150.76448245120423,-35.1324125251179],[150.76427640842962,-35.131912878876221],[150.76369427187319,-35.131929347261519],[150.76356797827964,-35.131728689627266],[150.76405812588189,-35.131052358979161],[150.76407074157157,-35.130583736650067],[150.76506762477118,-35.129429731996481],[150.76499296395423,-35.128941492755644],[150.76509994100957,-35.128636889680649],[150.76491340812731,-35.128227761102266],[150.76525511093473,-35.127765120164099],[150.76521632587276,-35.127575072731361],[150.76498669657883,-35.127543850068605],[150.76531227004534,-35.126864520181414],[150.76509386069313,-35.126824492256446],[150.76511186961716,-35.126563342624138],[150.76478036422247,-35.126647481396105],[150.76485588119408,-35.126288201339378],[150.76446658176735,-35.126073745406984],[150.7649768741835,-35.125055154371807],[150.76492120884677,-35.124269723368968],[150.76403296734759,-35.124244559438807],[150.76354519395557,-35.124019297252744],[150.76288467608697,-35.124503181976252],[150.76292835525942,-35.124918725418809],[150.76234190285663,-35.12509739912565],[150.76152270231091,-35.125767728597737],[150.76077534500621,-35.125808225968797],[150.75941883371229,-35.125648261757817],[150.75817004141436,-35.125156656354591],[150.75723814592379,-35.124310157787534],[150.757491146799,-35.123881979769521],[150.75727688781819,-35.123688728951663],[150.756330408022,-35.124194409644247],[150.75609202382793,-35.124081869382735],[150.75559233441879,-35.124298153636857],[150.75507094796592,-35.124099294646669],[150.75476479356041,-35.124463377982465],[150.75435992776852,-35.124419916445959],[150.75372835727796,-35.124642804421853],[150.75357845108476,-35.124504816943727],[150.75360357004877,-35.123982332418677],[150.75324232677201,-35.123948681586342],[150.75284744255555,-35.124347199963267],[150.75302756507017,-35.124584916860385],[150.75299685142363,-35.12490894079491],[150.75167200525891,-35.126011774923427],[150.7516900240754,-35.126562097063072],[150.75114128474252,-35.127372554399813],[150.75113955444692,-35.127841370982424],[150.75048282092553,-35.12858673718813],[150.75038868439037,-35.129630910338221],[150.74891159109711,-35.131082554616171],[150.74871486529889,-35.131051910217423],[150.7487122051042,-35.130745307050233],[150.74847890657634,-35.13084922281331],[150.74846060897005,-35.131119387249896],[150.74859979344581,-35.131248163871646],[150.74848367298318,-35.13229193142746],[150.74755748459029,-35.133257755640841],[150.74767596037736,-35.133341070633833],[150.74811916157012,-35.133186896258223],[150.74822519343797,-35.133324078843145],[150.74825391958279,-35.133883619933044],[150.74803179603066,-35.134384472165607],[150.74824365022437,-35.134262121199868],[150.74832074190874,-35.134381154566597],[150.74809905182985,-35.134737340955496],[150.74679885698174,-35.135732370652363],[150.74532241659631,-35.13634546637013],[150.74448254243543,-35.13655546885974],[150.74237814323681,-35.136725390364404],[150.74155189560361,-35.136654373600436],[150.74067943540763,-35.136390880334829],[150.73944131356586,-35.137481738191639],[150.73684129978619,-35.137433911345909],[150.73240179200911,-35.13682014743182],[150.73076657631646,-35.136411299441875],[150.729616283165,-35.135930220603143],[150.72940427698586,-35.135655821259093],[150.72951841534268,-35.135495625922374],[150.72916835243757,-35.135453096083495],[150.72886760295762,-35.135213117391402],[150.72830219109335,-35.13552373603153],[150.72785142570285,-35.135446800829129],[150.72750457337747,-35.135287115408005],[150.72755412872016,-35.135080654448586],[150.72740474323439,-35.134924612181067],[150.72641175140132,-35.135113626292764],[150.72571875541632,-35.135569666207061],[150.72540279929979,-35.135817783763684],[150.72559448439802,-35.136099335415963],[150.72541228984539,-35.1363394040402],[150.72421380562275,-35.136416405792431],[150.72303370174404,-35.136223243108134],[150.72085943781292,-35.135461648636124],[150.71931199055598,-35.134657539613727],[150.71731220589368,-35.133141733204354],[150.71521758412428,-35.131090414690846],[150.71473021902443,-35.133546534245113],[150.70750299456756,-35.132595553342071],[150.70777388475699,-35.133235654801581],[150.70788895930809,-35.134178357445194],[150.70531614912102,-35.137661482091687],[150.70503900414678,-35.138232354639399],[150.70466963099875,-35.138419357867008],[150.70466310102131,-35.139088904029677],[150.70506089814205,-35.140554482403388],[150.70428063644226,-35.142793248409646],[150.70463631291557,-35.143656565198285],[150.70713639492874,-35.145095286218464],[150.70772822257948,-35.145685552646114],[150.70788104797202,-35.14635049338051],[150.70753864189487,-35.151861739427716],[150.70703206277949,-35.152745159661322],[150.70493804175726,-35.154309446723516],[150.70343966780649,-35.15813849559504],[150.70296726113031,-35.158715924200521],[150.70215218397618,-35.159020794374101],[150.69969274862149,-35.159283001609197],[150.7036987858703,-35.162787338564783],[150.69154254185491,-35.176523863185707],[150.69193517686699,-35.176586787849942],[150.69205088633942,-35.176769284574789],[150.69163525116596,-35.177104102172507],[150.69147945081602,-35.177471555268028],[150.69155107372319,-35.17776071968143],[150.69218045976049,-35.17763728862991],[150.6923717527543,-35.177866286599794],[150.69343540072327,-35.177922303571393],[150.69495575500412,-35.17690755264141],[150.69596120334688,-35.177131142088513],[150.69615175799731,-35.177387170981092],[150.69421998276607,-35.178406147825399],[150.69428599840012,-35.178728023279632],[150.6941111594025,-35.179051214441927],[150.69430184625321,-35.179249836910401],[150.6936428464403,-35.179674984213079],[150.69406155369779,-35.180216231293969],[150.69352997342958,-35.18132288933981],[150.69375715027229,-35.181620112578116],[150.69434444444062,-35.181340260644447],[150.69473021672616,-35.181392907856377],[150.69535873132043,-35.181887019670171],[150.69587410670476,-35.181978544574122],[150.69571784680124,-35.182128275399521],[150.69581276304859,-35.18239597569368],[150.69571570641483,-35.182643312638731],[150.69548613917402,-35.182636547038953],[150.69493073226749,-35.182280650231803],[150.69416661789512,-35.183300603739838],[150.69375894891641,-35.183444059995338],[150.69391950308261,-35.183649556881505],[150.69389927643056,-35.184032232801258],[150.69401528987385,-35.184130237320574],[150.69411723342364,-35.184022314178435],[150.6944293476364,-35.184599840809938],[150.69477077704983,-35.183791388062048],[150.69509466428735,-35.183709375287378],[150.69474412384227,-35.184564858081671],[150.69504971257425,-35.184633696687683],[150.69484486589795,-35.184891337165425],[150.69523927167506,-35.18492577670321],[150.69508654520791,-35.18528356658328],[150.69455559356584,-35.185814593768441],[150.69466160834656,-35.18595183121198],[150.69449544241081,-35.186002813778771],[150.69449042419376,-35.186183040614765],[150.69465314482682,-35.186225626211638],[150.69451132084089,-35.186616217964058],[150.69470840726729,-35.186637950980582],[150.69470063982271,-35.186917304689814],[150.6951282413753,-35.186943352653543],[150.6953694341521,-35.187353611679782],[150.69565259019498,-35.187440062608744],[150.69597087555553,-35.187842748444041],[150.69554296823344,-35.188222431420058],[150.69583659058628,-35.188327118801453],[150.6956436716182,-35.188945628437978],[150.69540215958204,-35.188941106646723],[150.69526342206939,-35.189190960794178],[150.695308277555,-35.189552452283806],[150.6955068784398,-35.189520111763727],[150.69563402638926,-35.19000306658819],[150.69538665437062,-35.190249089623762],[150.69515950900416,-35.19016277719038],[150.694969633342,-35.190276432611256],[150.69492948041125,-35.190140432634792],[150.69463529418351,-35.190450491896627],[150.69409638444063,-35.190476454424811],[150.69423508418186,-35.190623312815603],[150.69401101899336,-35.190781409134672],[150.69427721831903,-35.190871235219277],[150.69399652731795,-35.190907364583154],[150.69397131842163,-35.19102410737662],[150.6946643512789,-35.191379725393972],[150.69379637060604,-35.191390495674796],[150.6934941966,-35.191592201918525],[150.69282157655459,-35.193037758685591]],[[150.73002513924882,-35.161816974573696],[150.7306453414094,-35.158977793290489],[150.73129356104903,-35.159073275211426],[150.73067338227088,-35.161912469085109],[150.73002513924882,-35.161816974573696]]]},"properties":{"OBJECTID":2,"OBJECTID_1":10458,"PA_ID":"CWTH_03","PA_PID":"CWTH_03","NAME":"Booderee","TYPE":"National Park (Commonwealth)","TYPE_ABBR":"NPC","IUCN":"II","NRS_PA":"Y","NRS_MPA":" ","GAZ_AREA":6312,"GIS_AREA":5530.1564679900002,"GAZ_DATE":699148800000,"LATEST_GAZ":699148800000,"STATE":"JBT","AUTHORITY":"DCCEEW","DATASOURCE":"DCCEEW","GOVERNANCE":"J","COMMENTS":"Updated from tenure data 2010 supplied by ACTPLA and checked against 35cm Terranean mosaic 22Dec06-29Mar07-25Jun07","ENVIRON":"T","OVERLAP":"1","MGT_PLAN":"M","RES_NUMBER":"CWTH03","ZONE_TYPE":" ","EPBC":"Commonwealth","LONGITUDE":150.73118195999999,"LATITUDE":-35.16227009,"PA_SYSTEM":"NRS","SHAPE_Leng":0.87259004568005005,"Shape_Length":0.38104577823371166,"Shape_Area":0.0027757517631604367,"InPoly_FID":3,"MaxSimpTol":8.9932204607556584e-05,"MinSimpTol":8.9932204607556584e-05}},{"type":"Feature","id":3,"geometry":{"type":"Polygon","coordinates":[[[150.67112443124756,-35.145474651733764],[150.6701849041101,-35.145181620235519],[150.66905074839337,-35.144204290095843],[150.66877590568356,-35.144334209755925],[150.66867691640664,-35.144611817881071],[150.66876894942754,-35.145185979249504],[150.66847767790262,-35.146095247797405],[150.66926792387562,-35.146980544016856],[150.6694690050906,-35.147552189981525],[150.66930153513783,-35.14813506757929],[150.66939490904792,-35.148416197449535],[150.67173094482735,-35.147938260842011],[150.67230904612563,-35.148093660993595],[150.67358217407809,-35.147919820243487],[150.67370228573202,-35.147354209629043],[150.67344236277484,-35.146785749063042],[150.67218289822222,-35.14586005080065],[150.67112443124756,-35.145474651733764]]]},"properties":{"OBJECTID":3,"OBJECTID_1":10458,"PA_ID":"CWTH_03","PA_PID":"CWTH_03","NAME":"Booderee","TYPE":"National Park (Commonwealth)","TYPE_ABBR":"NPC","IUCN":"II","NRS_PA":"Y","NRS_MPA":" ","GAZ_AREA":6312,"GIS_AREA":5530.1564679900002,"GAZ_DATE":699148800000,"LATEST_GAZ":699148800000,"STATE":"JBT","AUTHORITY":"DCCEEW","DATASOURCE":"DCCEEW","GOVERNANCE":"J","COMMENTS":"Updated from tenure data 2010 supplied by ACTPLA and checked against 35cm Terranean mosaic 22Dec06-29Mar07-25Jun07","ENVIRON":"T","OVERLAP":"1","MGT_PLAN":"M","RES_NUMBER":"CWTH03","ZONE_TYPE":" ","EPBC":"Commonwealth","LONGITUDE":150.73118195999999,"LATITUDE":-35.16227009,"PA_SYSTEM":"NRS","SHAPE_Leng":0.87259004568005005,"Shape_Length":0.015472481269887914,"Shape_Area":1.1997533908941349e-05,"InPoly_FID":7,"MaxSimpTol":8.9932204607556584e-05,"MinSimpTol":8.9932204607556584e-05}},{"type":"Feature","id":4,"geometry":{"type":"Polygon","coordinates":[[[150.76566227179649,-35.12110380579594],[150.76565964217878,-35.121244525414454],[150.76491021373545,-35.121297689736537],[150.76504347707487,-35.121435655630933],[150.76478716309714,-35.121860166213651],[150.76515214755364,-35.122057615966185],[150.76491463210471,-35.122420296359564],[150.76555232428041,-35.122364106718123],[150.7658503497139,-35.122642135725926],[150.76609752118372,-35.122313910158766],[150.76642053697822,-35.122224956416574],[150.76951675259613,-35.122600021373842],[150.77058773903298,-35.122136895701146],[150.77166229038244,-35.120647009551817],[150.77228824100962,-35.119122485114531],[150.7719931185876,-35.116126873056714],[150.77181035476417,-35.115266560903024],[150.770594086448,-35.113198873828935],[150.76846974478292,-35.112248934340812],[150.76803828693744,-35.112263755168101],[150.76794659925622,-35.112565675565406],[150.76822726777425,-35.113327018227267],[150.7676657265921,-35.113029332737483],[150.76757666133392,-35.113432152571761],[150.76779775516229,-35.11386315805828],[150.76755964706012,-35.114111351157874],[150.76691960765379,-35.114271750640739],[150.76728922901475,-35.114444903409549],[150.76727141164645,-35.114752218839783],[150.76663267805566,-35.11498166377271],[150.76662554823054,-35.11522435392078],[150.76616700640227,-35.115452892337089],[150.76582210470644,-35.115847984296977],[150.76584058937181,-35.116385577432425],[150.76555231618647,-35.116786312638169],[150.76473164974595,-35.116994716133206],[150.76500902674525,-35.117430128297713],[150.76456204570195,-35.117853959892273],[150.76432810955464,-35.1187291576245],[150.76402246686337,-35.118804769924168],[150.76402552096113,-35.119105033770268],[150.76431503161348,-35.119490095591402],[150.7643024878696,-35.119847750573172],[150.76415171742792,-35.119999863702731],[150.76461896289493,-35.120252808820055],[150.76477348890546,-35.120597756381301],[150.76566227179649,-35.12110380579594]]]},"properties":{"OBJECTID":4,"OBJECTID_1":10458,"PA_ID":"CWTH_03","PA_PID":"CWTH_03","NAME":"Booderee","TYPE":"National Park (Commonwealth)","TYPE_ABBR":"NPC","IUCN":"II","NRS_PA":"Y","NRS_MPA":" ","GAZ_AREA":6312,"GIS_AREA":5530.1564679900002,"GAZ_DATE":699148800000,"LATEST_GAZ":699148800000,"STATE":"JBT","AUTHORITY":"DCCEEW","DATASOURCE":"DCCEEW","GOVERNANCE":"J","COMMENTS":"Updated from tenure data 2010 supplied by ACTPLA and checked against 35cm Terranean mosaic 22Dec06-29Mar07-25Jun07","ENVIRON":"T","OVERLAP":"1","MGT_PLAN":"M","RES_NUMBER":"CWTH03","ZONE_TYPE":" ","EPBC":"Commonwealth","LONGITUDE":150.73118195999999,"LATITUDE":-35.16227009,"PA_SYSTEM":"NRS","SHAPE_Leng":0.87259004568005005,"Shape_Length":0.034894839999945249,"Shape_Area":5.8401961483731417e-05,"InPoly_FID":8,"MaxSimpTol":8.9932204607556584e-05,"MinSimpTol":8.9932204607556584e-05}},{"type":"Feature","id":5,"geometry":{"type":"Polygon","coordinates":[[[150.62835681971148,-35.167451788369306],[150.63316728614143,-35.166308548600568],[150.63946272392559,-35.165033431347752],[150.65051098699257,-35.163417176961104],[150.65680672694896,-35.162880520019939],[150.6595516700736,-35.162879311331096],[150.66123578190593,-35.162731404330827],[150.66215241410271,-35.162929373891473],[150.66276428944047,-35.163419017873309],[150.66279866422701,-35.16375328058939],[150.6622075434434,-35.164075526564261],[150.66230802919222,-35.164402047916155],[150.66267265212127,-35.164706608722952],[150.66447030695917,-35.164813301592574],[150.66539589730291,-35.16508354157213],[150.66558707338481,-35.164924920948295],[150.6661188883761,-35.163600697114418],[150.66678891927324,-35.162820109860149],[150.67009095463391,-35.162919529013038],[150.67252183201697,-35.163257595861296],[150.673224920194,-35.163203558297539],[150.68610051302835,-35.146959856012529],[150.68621362615795,-35.145801572384642],[150.68562565480022,-35.145175794427303],[150.68573236925351,-35.144800186279554],[150.69853945533168,-35.136043472228437],[150.69420263394443,-35.13336321643925],[150.69221843183527,-35.13287604289502],[150.69158474344124,-35.132579505839487],[150.69116821973762,-35.132203691746952],[150.69317775305092,-35.12209693162805],[150.66134990857154,-35.117819798245023],[150.66172636657859,-35.118586951426607],[150.66186168666752,-35.119229724771913],[150.66143541431302,-35.120709249831975],[150.66132919898337,-35.12251050555534],[150.66066288858156,-35.123940325085869],[150.66021405763274,-35.12582515390767],[150.65994969742064,-35.126232860657922],[150.65878538293919,-35.126663222229865],[150.6583836710696,-35.126996198016059],[150.6572898607385,-35.129456559672462],[150.65701965942981,-35.129694794579052],[150.65502717186655,-35.13028751975321],[150.65403184809134,-35.130935528052134],[150.65274225265296,-35.131127018896734],[150.65191582155796,-35.131624993298772],[150.65113105875139,-35.13181720539967],[150.65015580424699,-35.133295088297643],[150.64935991143079,-35.133874796684495],[150.64881978670383,-35.134720911241004],[150.64810815586679,-35.135040752428722],[150.64759044764116,-35.136635675795731],[150.64727190777239,-35.137026236971224],[150.64412899575666,-35.139066197946647],[150.64365234697834,-35.139228275564449],[150.64315204063428,-35.139831701771584],[150.64305348303185,-35.140587170961112],[150.64228088985124,-35.141879583975594],[150.64079749141115,-35.143077048367047],[150.63824753389667,-35.14585871530744],[150.63682120373562,-35.146976084278833],[150.6355183163173,-35.147617968194652],[150.63374555561302,-35.148944958343122],[150.6332246862703,-35.14911514065119],[150.63140629576401,-35.149359221151087],[150.62841185192553,-35.150031161309016],[150.62757747621959,-35.150032908691742],[150.62645599195048,-35.14971345870913],[150.62434131799751,-35.148815563887126],[150.62293460025171,-35.148490503034225],[150.62150440570383,-35.147461681311484],[150.62123665234969,-35.14760972141147],[150.62124004099519,-35.147871263148204],[150.62083122358217,-35.147962445410485],[150.61940312355534,-35.147618899892279],[150.61818660163044,-35.147549968656108],[150.61667854467919,-35.147691723394303],[150.61498860344136,-35.148424969436746],[150.61437869671954,-35.147881025289053],[150.6142980086463,-35.147635986111823],[150.61482655100463,-35.146825858826276],[150.61458635467659,-35.145648987111031],[150.61466057662437,-35.145361911822704],[150.61527735416666,-35.144914169053607],[150.61571824859834,-35.145229379632099],[150.61584050693386,-35.145177684802263],[150.61539099160109,-35.144781147631818],[150.61495765507175,-35.144583302177637],[150.61452817483541,-35.145007661674185],[150.61430032529984,-35.145670420653346],[150.61423930719832,-35.147012692981377],[150.61397910095479,-35.147278080219166],[150.61339420977504,-35.147383810814176],[150.61152891962399,-35.146598785405558],[150.61049219016252,-35.14507430413579],[150.60895975618791,-35.143978528786022],[150.60805942330376,-35.143609159235268],[150.60678936114016,-35.143872682178483],[150.60607536238808,-35.144285562728498],[150.60481267826253,-35.145402627729027],[150.60400986696186,-35.14582861409923],[150.60297725909334,-35.145853331066348],[150.60253270981673,-35.145664227921714],[150.60095540596728,-35.14592163277706],[150.60030996433341,-35.145845771365202],[150.59963744231413,-35.146319383133005],[150.59705260279543,-35.145745330582486],[150.59586666231667,-35.145009557445064],[150.59455992040409,-35.143901698804314],[150.59407959429791,-35.143811046242774],[150.59385647339764,-35.143932852219336],[150.59378257520575,-35.144580586225004],[150.59436772359163,-35.146711081950855],[150.59523114380227,-35.14721507011933],[150.5954916890903,-35.148437469113844],[150.59615383203379,-35.149442387755926],[150.59617127618355,-35.14959602163907],[150.59538594230742,-35.149048510780119],[150.59578873786006,-35.150661426883289],[150.59580394989246,-35.15126585043862],[150.59627402192859,-35.151707940069343],[150.59829868813404,-35.152297987961731],[150.59960951836467,-35.152522251001017],[150.60169626656955,-35.151970900036986],[150.60179197781758,-35.15112800865063],[150.60232139341758,-35.151218618044766],[150.6021336446521,-35.151958603606602],[150.60342532292043,-35.151930340612694],[150.60507295195521,-35.152830098829952],[150.60518983414363,-35.152255584927275],[150.60730229936166,-35.152544939996915],[150.60726531204455,-35.152726760431619],[150.61136429692488,-35.153285270898493],[150.61049749256529,-35.157576779944407],[150.60588538510251,-35.156948346289084],[150.60422642460992,-35.159078251160338],[150.60150597002462,-35.164245189963481],[150.60160371104246,-35.16503154457007],[150.60291391444571,-35.166409889604665],[150.6030566332571,-35.167161075323349],[150.60287196736749,-35.16845300540183],[150.60229547585561,-35.169156747385955],[150.60159953638959,-35.170423380434613],[150.60027641422516,-35.170983344205922],[150.5993639467888,-35.171019422308461],[150.59804025805158,-35.170848989089507],[150.59654217278307,-35.171008723973387],[150.59556093059257,-35.171890975088388],[150.59478371219859,-35.172930497844163],[150.59428698515626,-35.174137976186614],[150.59356804373033,-35.173564715938824],[150.59312249440768,-35.173781264593629],[150.59297491386121,-35.17431936944331],[150.59316117604749,-35.175080406335667],[150.59307466216603,-35.175781998040748],[150.59282923088438,-35.175912378153669],[150.5927217538059,-35.175459466081463],[150.59253991178753,-35.175293541163967],[150.5923702906565,-35.175461480562831],[150.59248691384005,-35.17625539307187],[150.59322519968327,-35.17775959103227],[150.59369630504057,-35.179292722880803],[150.59373419257895,-35.179870569670982],[150.59349159685974,-35.181398545706259],[150.59387016287781,-35.182343756559078],[150.59383869200212,-35.182667733728863],[150.59272475214561,-35.183574375357068],[150.59266324571229,-35.183798599725549],[150.59291316640952,-35.184263371157613],[150.59361405664345,-35.184331342817188],[150.59449150627802,-35.183997065711992],[150.59613744998342,-35.181802544551772],[150.5996152749251,-35.178553190577247],[150.60171958958745,-35.177197161319896],[150.60511250144089,-35.175334525967571],[150.60814924039516,-35.174005774946522],[150.61417927475384,-35.17169885022173],[150.62199255411315,-35.169228165247603],[150.62835681971148,-35.167451788369306]],[[150.67468950661555,-35.140864940064887],[150.67940566833704,-35.144387854315994],[150.68029096365706,-35.144634282046411],[150.67912059943615,-35.146289037309202],[150.67916703503067,-35.147543975573967],[150.67786608025551,-35.147776321719846],[150.67707063710031,-35.14839641506245],[150.6762575087771,-35.148595401756324],[150.67369667036508,-35.148387530659988],[150.67096618114442,-35.148791873945754],[150.67025757472732,-35.149333846779541],[150.66966061644439,-35.150118561022737],[150.66848765228337,-35.15080654778393],[150.66858454703925,-35.149988138641618],[150.66785020832049,-35.148520132098383],[150.66710472160571,-35.1483493085737],[150.66731183907018,-35.147793588703109],[150.66700053604598,-35.14551924281875],[150.66592899202942,-35.14438885975801],[150.66646996032046,-35.143929867369422],[150.66746154021803,-35.143790895133634],[150.66939155727459,-35.142236721847212],[150.66999119913464,-35.141950899314509],[150.6726697192322,-35.142414586164193],[150.67400663339947,-35.140763350847919],[150.67468950661555,-35.140864940064887]],[[150.59433954243605,-35.181601025367002],[150.59411886499367,-35.181204456720252],[150.59403557518169,-35.178842292937418],[150.59506513974452,-35.178735727771596],[150.59490650742941,-35.180773666171717],[150.59500776659524,-35.182143193353625],[150.59482966575649,-35.1824033726175],[150.59433954243605,-35.181601025367002]]]},"properties":{"OBJECTID":5,"OBJECTID_1":10458,"PA_ID":"CWTH_03","PA_PID":"CWTH_03","NAME":"Booderee","TYPE":"National Park (Commonwealth)","TYPE_ABBR":"NPC","IUCN":"II","NRS_PA":"Y","NRS_MPA":" ","GAZ_AREA":6312,"GIS_AREA":5530.1564679900002,"GAZ_DATE":699148800000,"LATEST_GAZ":699148800000,"STATE":"JBT","AUTHORITY":"DCCEEW","DATASOURCE":"DCCEEW","GOVERNANCE":"J","COMMENTS":"Updated from tenure data 2010 supplied by ACTPLA and checked against 35cm Terranean mosaic 22Dec06-29Mar07-25Jun07","ENVIRON":"T","OVERLAP":"1","MGT_PLAN":"M","RES_NUMBER":"CWTH03","ZONE_TYPE":" ","EPBC":"Commonwealth","LONGITUDE":150.73118195999999,"LATITUDE":-35.16227009,"PA_SYSTEM":"NRS","SHAPE_Leng":0.87259004568005005,"Shape_Length":0.40066287877541357,"Shape_Area":0.0026214992446795299,"InPoly_FID":9,"MaxSimpTol":8.9932204607556584e-05,"MinSimpTol":8.9932204607556584e-05}}]}