{
  "type": "FeatureCollection",
  "crs": { "type": "name", "properties": { "name": "EPSG:4283" } },
  "features": [
    {
      "type": "Feature",
      "id": 1,
      "geometry": {
        "type": "MultiPolygon",
        "coordinates": [
          [
            [
              [105.65288573319009, -10.446835475177011],
              [105.65251255590977, -10.446574894815512],
              [105.65130718288026, -10.448010211901703],
              [105.64804934829885, -10.450445182099429],
              [105.64682624513517, -10.450863579090878],
              [105.64665283695894, -10.451350764326264],
              [105.64546424168145, -10.451929521230397],
              [105.64439865117686, -10.452121788189913],
              [105.64358358121734, -10.452932023394112],
              [105.64169604633554, -10.453799773840444],
              [105.64123631200624, -10.454170504964793],
              [105.63999382125792, -10.454405784699134],
              [105.63961171820631, -10.454812069621255],
              [105.63936868541657, -10.454812557953119],
              [105.63899848399291, -10.455095643848836],
              [105.63760338638724, -10.455419046351835],
              [105.63631089603109, -10.456278427707218],
              [105.63568075905982, -10.457148245694952],
              [105.6346790518968, -10.458035443081201],
              [105.63410776925821, -10.458423747857637],
              [105.6327259852161, -10.458965861884963],
              [105.63231376207051, -10.459302745225443],
              [105.63050412286702, -10.459822994935223],
              [105.62860125004772, -10.459869711118245],
              [105.62801750640284, -10.460063584266948],
              [105.62737274195854, -10.460492806397838],
              [105.62253315817878, -10.462117962274078],
              [105.62094164414162, -10.46299099174081],
              [105.61992201169153, -10.46320894873395],
              [105.61858989091081, -10.463251780745054],
              [105.61816108606536, -10.463667899753716],
              [105.61711450812811, -10.464029874179289],
              [105.61584970699846, -10.464061973681112],
              [105.61453020010873, -10.46461339299367],
              [105.6136777875999, -10.464756932886075],
              [105.61107563972905, -10.464913144226159],
              [105.60934627221275, -10.465357525329466],
              [105.60879243822052, -10.465761309236996],
              [105.60798773294755, -10.465724036834786],
              [105.605489143809, -10.466518054564517],
              [105.60339009107992, -10.465887693662069],
              [105.60216043815376, -10.465248002293436],
              [105.60120483203741, -10.464947200652716],
              [105.60045920502836, -10.464453731854178],
              [105.59980779189613, -10.46425499697051],
              [105.59932247994857, -10.464328896960978],
              [105.59845320605069, -10.463730387347425],
              [105.59576426370984, -10.462848038206346],
              [105.59422239944422, -10.462960620735998],
              [105.59304802514629, -10.462643562050687],
              [105.59094652805987, -10.462479514018298],
              [105.59065908404955, -10.462049299035868],
              [105.5895903090456, -10.461854574229164],
              [105.58616238928289, -10.462091417884608],
              [105.58423418705814, -10.461758613868881],
              [105.58282312198952, -10.461996968385336],
              [105.58192930289505, -10.461694645991088],
              [105.58051668919393, -10.461003376704411],
              [105.57917494117066, -10.459986568125544],
              [105.57824593340314, -10.459078180013933],
              [105.57625887684577, -10.457838061677137],
              [105.57439333038792, -10.456880333160825],
              [105.57325456474643, -10.456623636971244],
              [105.57006050109129, -10.455351109765843],
              [105.56911281620359, -10.455254493799828],
              [105.56860316770207, -10.454964635109775],
              [105.56779765303929, -10.454966074025037],
              [105.56774065580669, -10.45507389284586],
              [105.56569734305799, -10.453907062061205],
              [105.56460168911673, -10.452974855405216],
              [105.5618165777729, -10.449425886895142],
              [105.56099952390895, -10.447620535659155],
              [105.56127850080225, -10.446521306013437],
              [105.56093554164198, -10.445418917948643],
              [105.56052677099376, -10.444963823221826],
              [105.55906204697595, -10.44414041294965],
              [105.55842615524296, -10.443588674377793],
              [105.5577680349669, -10.443377742888458],
              [105.55518086260679, -10.441973215891153],
              [105.55473769918552, -10.441947665252485],
              [105.55304470834665, -10.441188473768989],
              [105.55220408594988, -10.441108803728241],
              [105.55118112960548, -10.441302120196667],
              [105.55018052680992, -10.442103694030209],
              [105.54956406582903, -10.442877818756301],
              [105.54918113809913, -10.444022450675504],
              [105.54861167209106, -10.445126962938957],
              [105.54819671230848, -10.447075727262984],
              [105.54809544414951, -10.448833857796274],
              [105.54778873666095, -10.449412742404093],
              [105.54773715964228, -10.450432442303338],
              [105.54730076901535, -10.452564393132207],
              [105.54740954021815, -10.456030992736089],
              [105.54775724779881, -10.457515233840923],
              [105.54802004858641, -10.458040946932101],
              [105.54787893866217, -10.458231301033663],
              [105.54810775227099, -10.458974398249836],
              [105.54847572967122, -10.459663544237117],
              [105.54931070882219, -10.460458246350925],
              [105.55020056010784, -10.46205267868811],
              [105.55192843295089, -10.463410085706869],
              [105.55260993829808, -10.463541026097403],
              [105.55462630196234, -10.464747600621251],
              [105.55557305065582, -10.465690941783464],
              [105.55638625002547, -10.467470713602495],
              [105.55748957428449, -10.471457678029367],
              [105.55751262390851, -10.472844798648509],
              [105.55770666523046, -10.473544994605788],
              [105.55751982028352, -10.473859233017151],
              [105.55772412916531, -10.474418515102343],
              [105.55758209473794, -10.47546649058603],
              [105.55737204638291, -10.475996925117954],
              [105.55639263431266, -10.476587836359499],
              [105.55509087014758, -10.477757768006541],
              [105.55486599736793, -10.478221022282298],
              [105.55468230724273, -10.479288708207264],
              [105.55426300193608, -10.479151245033904],
              [105.5534806502119, -10.480706702552254],
              [105.55336520334151, -10.481408170150871],
              [105.55311183194556, -10.481677843557577],
              [105.55333776592522, -10.482369853885587],
              [105.55296612468698, -10.482726015093476],
              [105.55271511581003, -10.483250176854142],
              [105.55280052802203, -10.484001126051055],
              [105.55239640776807, -10.48480455788399],
              [105.55240504215902, -10.485652138335467],
              [105.55214455982366, -10.486040302817685],
              [105.55222639633121, -10.486480591106329],
              [105.5519955007918, -10.486851977836466],
              [105.55216737292596, -10.487359307885697],
              [105.55198394900009, -10.487605804863961],
              [105.55221785996633, -10.488467547839036],
              [105.55171102004761, -10.488909232774802],
              [105.55164241436597, -10.489483547028044],
              [105.55196081483979, -10.489915284562699],
              [105.55198249569565, -10.490345376337984],
              [105.5508361307829, -10.491123244042456],
              [105.55005429526955, -10.492169892126753],
              [105.54955339267497, -10.492508085779491],
              [105.54903860364868, -10.492640018122302],
              [105.54828866079311, -10.492391257550423],
              [105.54721183685683, -10.492397445785457],
              [105.54657379394547, -10.493118079735552],
              [105.54642113133019, -10.493447084115587],
              [105.54650158378115, -10.493728478386515],
              [105.54616986974378, -10.494513527177503],
              [105.54577991561069, -10.494861390340873],
              [105.54530420122796, -10.495652825217689],
              [105.54533697432197, -10.496730875829201],
              [105.54499852706044, -10.49706699024938],
              [105.54450955397277, -10.49728641493607],
              [105.54333958005765, -10.49697305696094],
              [105.54282540706697, -10.497410942261126],
              [105.54157004881876, -10.497340366164906],
              [105.54077402020494, -10.497661966426563],
              [105.53947664113412, -10.498700247218608],
              [105.53900883269154, -10.499961751433659],
              [105.53816112903291, -10.500839449281102],
              [105.53793267964949, -10.501320791621197],
              [105.53684285061712, -10.502606422848089],
              [105.53579374378631, -10.504714246665117],
              [105.53529856897381, -10.504952935729364],
              [105.53454376528259, -10.506034760795501],
              [105.53389465621348, -10.506464625941703],
              [105.53396468732052, -10.506698748248596],
              [105.53369076821446, -10.507634893935176],
              [105.53281932784978, -10.508339239364375],
              [105.5326943121928, -10.509562551170745],
              [105.53283106310312, -10.510173770902782],
              [105.53278892986526, -10.511870395002688],
              [105.53294655134232, -10.512656939366195],
              [105.53322852028003, -10.51294886739629],
              [105.53334853300845, -10.513387198760142],
              [105.53420871206248, -10.514368551567372],
              [105.53522085495854, -10.51501402917404],
              [105.53752990208335, -10.515937573560109],
              [105.54057284006456, -10.516187256836361],
              [105.54228812689558, -10.516096508946703],
              [105.54284816171338, -10.51589062175475],
              [105.5431391967166, -10.515504762234968],
              [105.5437741693425, -10.515087930063885],
              [105.54440387284052, -10.51479527538163],
              [105.54553521997451, -10.514568139008361],
              [105.54783475407072, -10.513193394859229],
              [105.54806138592426, -10.512874478174581],
              [105.54810126995773, -10.512535539883231],
              [105.54922708626106, -10.511351652556698],
              [105.55009915165459, -10.509936132246651],
              [105.5521290528136, -10.507223329093335],
              [105.55379874311757, -10.505425578027939],
              [105.55442128081751, -10.504918947651277],
              [105.55533305038006, -10.504471661737739],
              [105.55634455116018, -10.504300600792021],
              [105.55676822807135, -10.504058195729101],
              [105.55707518826938, -10.504158863140958],
              [105.5582686578723, -10.503893406655322],
              [105.55914495817336, -10.504208135197246],
              [105.55974096677227, -10.504055513950789],
              [105.56021355331291, -10.504278151015797],
              [105.5636251971452, -10.504726569175773],
              [105.56500858827582, -10.505135242697236],
              [105.56566695856333, -10.504700318864593],
              [105.56658271032387, -10.504492768826196],
              [105.56680443907368, -10.504255239887357],
              [105.5676122865778, -10.504163261725125],
              [105.56766161439202, -10.504400121568324],
              [105.56801604170704, -10.504724711176436],
              [105.56853833377716, -10.50478934994851],
              [105.56910781417434, -10.505220262804812],
              [105.56948765363239, -10.505094228216024],
              [105.57013822859642, -10.50455603883006],
              [105.57077452772234, -10.504393555618037],
              [105.57201988281139, -10.504527961096471],
              [105.5727962153731, -10.504293951204829],
              [105.57358968811366, -10.50433467340639],
              [105.57422806737145, -10.504120809227913],
              [105.57473761694752, -10.504359176334901],
              [105.57593406420574, -10.504134623713867],
              [105.57642788284056, -10.504419974102461],
              [105.57739772612422, -10.50421164075459],
              [105.57744850634356, -10.504392605933958],
              [105.578241908937, -10.504544723560116],
              [105.57864428180824, -10.504452649170389],
              [105.57919773988385, -10.504563247795602],
              [105.5796766261754, -10.504385565141661],
              [105.58001820307766, -10.504765321862067],
              [105.58046488824408, -10.504917536614983],
              [105.58132205007263, -10.504849307749282],
              [105.58191691293524, -10.505171899963159],
              [105.58231865718034, -10.505274802190343],
              [105.58263541009615, -10.505184151427386],
              [105.58368655569006, -10.505496672133688],
              [105.58423807123006, -10.505160767255575],
              [105.5842746997177, -10.505642194131894],
              [105.58477265523391, -10.506276607379505],
              [105.58540174539428, -10.506469613581771],
              [105.58585424197975, -10.506784592135148],
              [105.58588880292598, -10.506987195902298],
              [105.58646433306257, -10.507031717739551],
              [105.58677250734542, -10.507766223732176],
              [105.58797244577181, -10.508855327011702],
              [105.58818984518524, -10.509240726977907],
              [105.58816324683642, -10.509528002815046],
              [105.58877982023256, -10.510246122260696],
              [105.59059819005449, -10.511629331728216],
              [105.5921128003655, -10.512093354025012],
              [105.59382713571381, -10.512438521020897],
              [105.59521797323094, -10.512119644805693],
              [105.59618006076124, -10.511727609641412],
              [105.59676042475388, -10.511755633415703],
              [105.59807701334353, -10.511230701835359],
              [105.59935240309102, -10.511374801106115],
              [105.60004955394385, -10.51126305674461],
              [105.60058690516161, -10.511356361406911],
              [105.60131330736328, -10.511156578813029],
              [105.60165917313242, -10.511326940985498],
              [105.60305605859031, -10.511303849992657],
              [105.60389444527249, -10.511639307008352],
              [105.60476444402394, -10.511647157190509],
              [105.60534783783248, -10.512013934895151],
              [105.60687989589053, -10.512232675197765],
              [105.60778469480789, -10.512545850610479],
              [105.61105166829992, -10.512597540044396],
              [105.61177944106839, -10.513052313713274],
              [105.61275563896163, -10.513189890201204],
              [105.61375520933552, -10.513135405674404],
              [105.61450344707646, -10.513351100872569],
              [105.61521368756172, -10.513163149759521],
              [105.61593524511551, -10.513419860338217],
              [105.61686215566402, -10.513458487119465],
              [105.6182509679079, -10.514106031368215],
              [105.61883419534189, -10.514156433872301],
              [105.6200829867405, -10.514565665872738],
              [105.62038873105513, -10.514907104279416],
              [105.62124248355383, -10.515283827586529],
              [105.62179074444737, -10.515206601903117],
              [105.62282596484647, -10.515658023798721],
              [105.6232517101983, -10.516054668887818],
              [105.62414524780502, -10.515941583637129],
              [105.62469756014434, -10.516201857329804],
              [105.62542054132496, -10.516801021649769],
              [105.62625441520913, -10.516649253859953],
              [105.62655887169461, -10.517307764441739],
              [105.62747001532898, -10.517940207274705],
              [105.62770590930035, -10.518408477069499],
              [105.62855710502646, -10.518818546338821],
              [105.62921414791464, -10.519340961616024],
              [105.62917535385958, -10.519772979739173],
              [105.62930147388397, -10.520046020207644],
              [105.63087951967418, -10.521326831068336],
              [105.63120438987073, -10.522261399344075],
              [105.63154501618959, -10.522450089699817],
              [105.63179391705569, -10.522923303967275],
              [105.6322265494158, -10.523145549827234],
              [105.63222305644894, -10.52358716461589],
              [105.63345567084258, -10.525446271028557],
              [105.63371359730473, -10.52693299696017],
              [105.63423214279919, -10.527516084999263],
              [105.63462667897812, -10.52939296111623],
              [105.63451675034781, -10.529714502921934],
              [105.63461723519731, -10.530721855129457],
              [105.63449505510278, -10.531128250668189],
              [105.63471350222642, -10.531630745962104],
              [105.63434204265121, -10.532414218241513],
              [105.63443146404092, -10.53386329405572],
              [105.63420747169749, -10.534310231032293],
              [105.63432600594047, -10.535921763978195],
              [105.63451440311729, -10.536344644989356],
              [105.63444954131336, -10.537429390154159],
              [105.634889564302, -10.538298326806284],
              [105.63547657608319, -10.540128404002587],
              [105.63610894786973, -10.541022292344849],
              [105.63641052922259, -10.542219521113964],
              [105.63690694779746, -10.542996648676365],
              [105.63748380533343, -10.545871656251904],
              [105.63743876368807, -10.547434853335744],
              [105.63720912899817, -10.547898359421708],
              [105.63728059902047, -10.548344246889428],
              [105.63695898526902, -10.549147624763009],
              [105.63700669160562, -10.550304395731246],
              [105.6368926836505, -10.550820387151077],
              [105.63707223869289, -10.55142378727794],
              [105.63690020018413, -10.552208220932584],
              [105.63699561375665, -10.553713346094014],
              [105.63753673583176, -10.55506709197266],
              [105.63796887896063, -10.555563720089538],
              [105.63799655289864, -10.555858302018976],
              [105.63835645798423, -10.556381025763699],
              [105.63911525826262, -10.559796203931626],
              [105.63939578468779, -10.560287705013536],
              [105.63931716415584, -10.560720698901093],
              [105.63946521594704, -10.561157216332447],
              [105.63966748516634, -10.561243801260389],
              [105.63974468297079, -10.562024839974356],
              [105.64016854244431, -10.563497372805443],
              [105.64066688826637, -10.564176098348241],
              [105.64062468488135, -10.564537568254138],
              [105.64079012866159, -10.564895809593907],
              [105.6430969688501, -10.567426516220678],
              [105.64328588313708, -10.56816961523549],
              [105.64395664608242, -10.568456834415315],
              [105.64393300920108, -10.568823332430782],
              [105.64414770884974, -10.569176057329116],
              [105.64485508679286, -10.569311703872017],
              [105.64594029241061, -10.569960086288916],
              [105.64654832944188, -10.570016998985295],
              [105.64832369997885, -10.570593058822567],
              [105.64858057783147, -10.563180467004884],
              [105.64682881629687, -10.562502567039814],
              [105.6468759641545, -10.563523677975297],
              [105.64724949037173, -10.563734900844963],
              [105.64723037887893, -10.564052226628917],
              [105.645845157628, -10.56332332341259],
              [105.64445610886241, -10.561175474368611],
              [105.64380500239901, -10.561319474713969],
              [105.64349231531816, -10.560351365323186],
              [105.64384682806872, -10.558048060369629],
              [105.64359775992875, -10.557708033898621],
              [105.64401955096156, -10.55729448515234],
              [105.64385866134819, -10.556901151367015],
              [105.64351497463645, -10.556567090099065],
              [105.64346257383875, -10.556074610554788],
              [105.6430588717696, -10.555406084223364],
              [105.64282684758103, -10.554267529023207],
              [105.64217980605326, -10.553221704717828],
              [105.64202553814812, -10.551944190771735],
              [105.64236468418289, -10.551125459672164],
              [105.6423117797649, -10.550629908043788],
              [105.64303878631102, -10.550712608799813],
              [105.64328881672554, -10.551420811421281],
              [105.64301414218897, -10.552226228057918],
              [105.64348183911562, -10.552610761977064],
              [105.64340628796987, -10.553077243020311],
              [105.64383425374785, -10.553619984774457],
              [105.64387014389206, -10.553532728952234],
              [105.64338683023806, -10.551917927870022],
              [105.64364658412262, -10.547831930998768],
              [105.64325316580101, -10.542502508084226],
              [105.64157431320405, -10.533487451184897],
              [105.6417537270529, -10.530995202266752],
              [105.6414251849244, -10.526010402258237],
              [105.64143726821544, -10.525306557751378],
              [105.64162876715392, -10.524687527407423],
              [105.64287761610916, -10.522928262828998],
              [105.64300332874069, -10.522039727251581],
              [105.64267579205421, -10.520681536024028],
              [105.64292512639355, -10.519699176875463],
              [105.64334019769205, -10.519216114132291],
              [105.64482743983456, -10.518060236190877],
              [105.64336876465683, -10.516463692245566],
              [105.64760252193889, -10.512136968446271],
              [105.64301607033542, -10.508732490412058],
              [105.64225390299526, -10.5088031078771],
              [105.64174069317852, -10.509566600817948],
              [105.64187578214171, -10.509717825417283],
              [105.64165198495118, -10.510091572867736],
              [105.64115611136549, -10.509783175553082],
              [105.64132599869595, -10.509237304158205],
              [105.64101448523036, -10.508952208277719],
              [105.64141558735952, -10.508217589869844],
              [105.64062889011126, -10.507323366080414],
              [105.6399076266357, -10.507281989172441],
              [105.63946528609415, -10.508190280157237],
              [105.63868701189614, -10.509069023916254],
              [105.63915933313677, -10.51129011644565],
              [105.63848661506529, -10.51152672268006],
              [105.63787842424995, -10.509377226078072],
              [105.63620707289817, -10.508655208970652],
              [105.6341538280368, -10.509065420332831],
              [105.63361530410305, -10.508947431079037],
              [105.63383259110128, -10.508459532681229],
              [105.63268598876743, -10.508415261754863],
              [105.6328580272762, -10.507607485297171],
              [105.63385677297174, -10.506321995263818],
              [105.63504620731669, -10.507178192119852],
              [105.63569097086167, -10.506013765223031],
              [105.63592183582415, -10.506054193346301],
              [105.63574404075496, -10.506660608899949],
              [105.63583754326805, -10.507224866034676],
              [105.6373868808999, -10.507069284220051],
              [105.63767988541844, -10.507866904633886],
              [105.63854241080367, -10.508418726842706],
              [105.63949523711557, -10.50685180116966],
              [105.63880670716384, -10.505749609157078],
              [105.63997846803193, -10.504527722776118],
              [105.64123958104187, -10.505198624217087],
              [105.64287894170985, -10.503251675624313],
              [105.64375841302041, -10.503522228567931],
              [105.64537385711787, -10.501250648998223],
              [105.64732045587442, -10.502524529683228],
              [105.64833120212336, -10.50095355166502],
              [105.64983172995045, -10.502314733138405],
              [105.65048079675142, -10.501162849086143],
              [105.6512122441498, -10.500806758025419],
              [105.64943867495492, -10.497193570726665],
              [105.64894116820039, -10.496499590883388],
              [105.64915765929862, -10.496188134075055],
              [105.64959031773901, -10.496235771163867],
              [105.65079978268386, -10.496743742429715],
              [105.65316997831189, -10.49791600691816],
              [105.65571557501386, -10.500154493235243],
              [105.65814769615929, -10.500939360363134],
              [105.66530666477081, -10.49109629405865],
              [105.66366854786526, -10.489969110785808],
              [105.66305088628945, -10.49077976687272],
              [105.66209847816231, -10.490024265307568],
              [105.66460584108677, -10.486365172114972],
              [105.66737080671743, -10.488257554342624],
              [105.6746740292831, -10.478213658633365],
              [105.65974731308808, -10.466979994930796],
              [105.66615613110065, -10.458637808088326],
              [105.67029952810083, -10.461755876332575],
              [105.67805344501056, -10.451081172757881],
              [105.67767695912443, -10.45098849672172],
              [105.67750929222012, -10.450553824699227],
              [105.67865892616857, -10.449551853135461],
              [105.67748767971273, -10.448912788594271],
              [105.67866585634425, -10.448698883946292],
              [105.67937408414673, -10.44920387755684],
              [105.67994992005282, -10.448314125196646],
              [105.6785993173047, -10.446926906551425],
              [105.67851217299847, -10.446245081045618],
              [105.67700368077533, -10.44505651274784],
              [105.67669438863521, -10.445516512377083],
              [105.6773173040504, -10.446099891796507],
              [105.67717159859046, -10.446894608299488],
              [105.67693690611338, -10.447403836817557],
              [105.67647231094844, -10.447901401128718],
              [105.67498816786969, -10.446803497083692],
              [105.67518311840627, -10.446415416238438],
              [105.67578430979813, -10.446520118908325],
              [105.67626122567509, -10.445998080446998],
              [105.67399110030908, -10.443875182193835],
              [105.67382510974107, -10.442809268832661],
              [105.67244815775632, -10.442203746305779],
              [105.67106145712063, -10.442602094710878],
              [105.66837553200526, -10.444093249803586],
              [105.66680718000742, -10.445238260337419],
              [105.66562820927447, -10.446411684951272],
              [105.6595867148551, -10.451514628896973],
              [105.65288573319009, -10.446835475177011]
            ],
            [
              [105.62978449525832, -10.478534016031972],
              [105.63011123604474, -10.478158074235694],
              [105.62996885537842, -10.478755325697648],
              [105.62957068683778, -10.478703190200008],
              [105.62978449525832, -10.478534016031972]
            ],
            [
              [105.63149599594351, -10.492414210047684],
              [105.63072836702059, -10.492092667342661],
              [105.63075253630058, -10.491550216968903],
              [105.63211297403461, -10.491830116566575],
              [105.63193935721563, -10.492370973341679],
              [105.63149599594351, -10.492414210047684]
            ],
            [
              [105.63400446233612, -10.491398602963102],
              [105.6345458641004, -10.491887978947034],
              [105.63408112864124, -10.492769239009135],
              [105.63328861997388, -10.49221057206023],
              [105.63400446233612, -10.491398602963102]
            ],
            [
              [105.6420711355745, -10.512118374063675],
              [105.64283889130184, -10.511045601573187],
              [105.64390970596821, -10.511807238313338],
              [105.64304372988431, -10.512777289340363],
              [105.6420711355745, -10.512118374063675]
            ],
            [
              [105.60218421532932, -10.482239166204522],
              [105.60305414483298, -10.482334831587139],
              [105.60341891075421, -10.484433673874889],
              [105.60272793374719, -10.484593739709283],
              [105.60218421532932, -10.482239166204522]
            ],
            [
              [105.62599692311954, -10.489142402699656],
              [105.62694867384226, -10.489911219627061],
              [105.62669561001445, -10.490531355237806],
              [105.6257193572626, -10.490144028024417],
              [105.6243367332537, -10.490081219372712],
              [105.6244211948823, -10.489755441760167],
              [105.62470729710412, -10.489540040640293],
              [105.62510958723772, -10.48963370862873],
              [105.62525371168948, -10.489357638344302],
              [105.62599692311954, -10.489142402699656]
            ],
            [
              [105.62816984706086, -10.477782285324167],
              [105.6289857138197, -10.47672472576545],
              [105.62957202772697, -10.476847814175244],
              [105.63027113370589, -10.47748738233679],
              [105.63022578808972, -10.477677623123782],
              [105.62925484403587, -10.478661812392659],
              [105.6282085862573, -10.478203183330209],
              [105.62816984706086, -10.477782285324167]
            ],
            [
              [105.61986699926268, -10.480195476639892],
              [105.61885766405004, -10.481646844826003],
              [105.6171990947625, -10.480449852578602],
              [105.617598201296, -10.479895950237847],
              [105.61845257972283, -10.480444908105994],
              [105.61930479707877, -10.479504110226458],
              [105.62003919155552, -10.479881811995995],
              [105.62049599229624, -10.479478683694254],
              [105.62067194105731, -10.479473488310816],
              [105.62168842857818, -10.477932810250934],
              [105.62244400208908, -10.478502653074941],
              [105.62123056663739, -10.480214251786265],
              [105.62048301328048, -10.479665600586941],
              [105.61986699926268, -10.480195476639892]
            ],
            [
              [105.66874598523907, -10.482881428734913],
              [105.67009964568217, -10.483020444138162],
              [105.67036035284809, -10.483350593355169],
              [105.66852295606964, -10.485629129180893],
              [105.66761995939368, -10.485948646612712],
              [105.66723725469564, -10.485761101993205],
              [105.66697321104493, -10.485391459947891],
              [105.66874598523907, -10.482881428734913]
            ],
            [
              [105.61532340664996, -10.486786250884734],
              [105.61558483866941, -10.48765548161515],
              [105.61720959974332, -10.488563885015253],
              [105.61674615121399, -10.489327475982179],
              [105.61480555902938, -10.488546535294347],
              [105.61209918333071, -10.486774110936437],
              [105.61264272098487, -10.48604689664694],
              [105.61315953528441, -10.485915636996992],
              [105.61532340664996, -10.486786250884734]
            ],
            [
              [105.55293854967437, -10.454003356069961],
              [105.55388553668826, -10.453478607052034],
              [105.55501089163937, -10.454864401171108],
              [105.55398014087086, -10.454461316036884],
              [105.55383943833948, -10.454610444316529],
              [105.55442235640669, -10.455258210697821],
              [105.55710948301629, -10.456226712192972],
              [105.5584565523281, -10.458712421241216],
              [105.55813439358747, -10.459283941300782],
              [105.55504564863782, -10.457179469257028],
              [105.55293854967437, -10.454003356069961]
            ],
            [
              [105.60913587222279, -10.481682216960678],
              [105.61114195483742, -10.483203616253832],
              [105.61195709494405, -10.482875352915187],
              [105.6126160803679, -10.483183010087771],
              [105.61790907084702, -10.483165241282791],
              [105.61851502594777, -10.483537130733964],
              [105.61821834859796, -10.48400239679313],
              [105.61916593725823, -10.484593460020108],
              [105.61985061271565, -10.483822437955098],
              [105.61929941913297, -10.483402379016525],
              [105.61960018929739, -10.482917808110301],
              [105.62176408944123, -10.484169140993004],
              [105.6197525029757, -10.48712135896352],
              [105.61827241224211, -10.486313344185419],
              [105.61719248834271, -10.485502253725997],
              [105.61695646576834, -10.485573974659133],
              [105.61638025304632, -10.485272548888986],
              [105.61651184904264, -10.484308070960651],
              [105.61496312474844, -10.484069927784901],
              [105.61329400911131, -10.484045479715064],
              [105.6127763557443, -10.484637397298002],
              [105.61199759411375, -10.484486214966807],
              [105.61074634306937, -10.484976192597173],
              [105.6107038186264, -10.485293405965876],
              [105.6116062145552, -10.485938461790511],
              [105.61140559379317, -10.486249600238807],
              [105.61098830116924, -10.486178772332437],
              [105.60987883004401, -10.487809164061616],
              [105.61076279976345, -10.488213144021358],
              [105.60976240381194, -10.489794906709506],
              [105.60885587459899, -10.489257989864313],
              [105.60877178978632, -10.48985717127141],
              [105.60799042911509, -10.4896914190237],
              [105.60758478720822, -10.489358740913133],
              [105.60840568297596, -10.488610154235175],
              [105.60745021625456, -10.488143839566476],
              [105.60747832186712, -10.486484502257952],
              [105.607886060993, -10.486343743069256],
              [105.60836283567636, -10.486674171076061],
              [105.609628463283, -10.485021299893049],
              [105.60893117213595, -10.484448063027628],
              [105.60807577117998, -10.485390706316025],
              [105.60682872536546, -10.48412165768832],
              [105.6070063810397, -10.48394140477194],
              [105.60779880517077, -10.484570886137419],
              [105.60828136519291, -10.483997786868315],
              [105.60794421565311, -10.483668000977389],
              [105.60913587222279, -10.481682216960678]
            ],
            [
              [105.62341543717275, -10.49367382928375],
              [105.62530047014064, -10.493829955188232],
              [105.62682745692166, -10.494178529715327],
              [105.62708592567498, -10.494631362647226],
              [105.62763777756146, -10.494518164981287],
              [105.62803999934653, -10.494845983155528],
              [105.62808326213292, -10.495411634239474],
              [105.63105109773005, -10.49647999195804],
              [105.6320041911406, -10.497078307317963],
              [105.63119244507533, -10.498216735713754],
              [105.63042378283137, -10.498002355324388],
              [105.62925093108566, -10.497041383852718],
              [105.62969560626726, -10.496463507384931],
              [105.62954390682592, -10.496124111338645],
              [105.62883752083496, -10.495904516680071],
              [105.62777374606156, -10.497054444706805],
              [105.62698056829862, -10.496417156326629],
              [105.6264974201199, -10.495370927326405],
              [105.62592002029277, -10.497060507936055],
              [105.62617522001045, -10.497939059240139],
              [105.62389548179112, -10.500498233906342],
              [105.62439949873794, -10.501246501324943],
              [105.62525650678242, -10.501644014259796],
              [105.62662182064059, -10.501911827868526],
              [105.62789180366389, -10.501816093238062],
              [105.62916508629974, -10.50055932395361],
              [105.62951035222102, -10.501108787240696],
              [105.63037551711648, -10.500836248593941],
              [105.63080609542504, -10.500005658134569],
              [105.63148725093595, -10.500474918982263],
              [105.63388781397151, -10.49768857826524],
              [105.63478138125578, -10.498162951758786],
              [105.63518149233204, -10.498579379234911],
              [105.63504455796004, -10.499057526283764],
              [105.63558322218802, -10.49934929873109],
              [105.63619539430209, -10.498451441680629],
              [105.63673460172055, -10.498900169207388],
              [105.6362699660861, -10.499749199366022],
              [105.63674132055559, -10.500797929380894],
              [105.63681383918737, -10.502115187066181],
              [105.63637514359806, -10.502523734682541],
              [105.63471795836716, -10.501365021178742],
              [105.63381969662174, -10.502540820002821],
              [105.62912305108802, -10.503742198243799],
              [105.62717895424538, -10.503900210925963],
              [105.62546275819977, -10.50342188401271],
              [105.62438664832524, -10.503457311905379],
              [105.62238387611507, -10.502741314859747],
              [105.62048450795373, -10.501034145309518],
              [105.62027958483503, -10.500139461067249],
              [105.62017327417732, -10.498220744891398],
              [105.62054816916276, -10.497312049211644],
              [105.61951033533376, -10.496214608317473],
              [105.6201695159105, -10.495050962032224],
              [105.62111065013647, -10.493854889791294],
              [105.62257097287215, -10.49401562831855],
              [105.62341543717275, -10.49367382928375]
            ],
            [
              [105.57510487039349, -10.482317593382163],
              [105.57302843471456, -10.481942574290315],
              [105.5730817860956, -10.480703209585386],
              [105.57395490099793, -10.480677686825743],
              [105.57564400766489, -10.481600241957551],
              [105.5751592829746, -10.478979639998329],
              [105.57510352770572, -10.476760124879831],
              [105.57523670291158, -10.475658881652009],
              [105.57428839029706, -10.476510694313049],
              [105.5740564047793, -10.477628351067494],
              [105.57279765428837, -10.479288121849322],
              [105.57114851529178, -10.477964424118852],
              [105.57029221861109, -10.478287071191346],
              [105.56956520127306, -10.479485766754692],
              [105.56898007267228, -10.479890388830313],
              [105.56778269101841, -10.478942941363584],
              [105.56776972819046, -10.477797957809457],
              [105.56863858120562, -10.476801419949538],
              [105.57043335731368, -10.477646484097932],
              [105.5710577799926, -10.477157091926188],
              [105.5714386824493, -10.477521258898946],
              [105.57244355972256, -10.476176758950203],
              [105.57191389501031, -10.475729166367898],
              [105.56950895767233, -10.475301241059356],
              [105.56919216428702, -10.474193808697294],
              [105.56785117079494, -10.473431909355099],
              [105.56699599287083, -10.473800082807543],
              [105.56654532730505, -10.472960314766681],
              [105.5669452693088, -10.472147815968867],
              [105.56828353785505, -10.470448902195017],
              [105.57133787474316, -10.472693395084093],
              [105.57082523689525, -10.473404080733701],
              [105.57137791256065, -10.47524196674334],
              [105.57278994170252, -10.476238534280867],
              [105.57408722274721, -10.474573790248201],
              [105.5720956273114, -10.472855514070659],
              [105.57251249995198, -10.471554207660517],
              [105.57325086313688, -10.470464966784732],
              [105.57243379488381, -10.469760901044708],
              [105.57233139627698, -10.469858704115836],
              [105.57127286005453, -10.46910880262908],
              [105.5713548908156, -10.468992461832613],
              [105.57075864389634, -10.46856223425965],
              [105.57058997244934, -10.468860224619618],
              [105.56947619896749, -10.468096141723493],
              [105.56954706824268, -10.467912216875277],
              [105.56660362405808, -10.465791483290275],
              [105.56605071007226, -10.465148604724277],
              [105.56356459632912, -10.463711401759724],
              [105.56343888099963, -10.462981492202061],
              [105.56220789977482, -10.461966567702916],
              [105.56162887936932, -10.460951814074917],
              [105.56198146397344, -10.460522772707748],
              [105.56269132674339, -10.460964205833363],
              [105.56309928890113, -10.460541045133084],
              [105.56519547818885, -10.462220234076483],
              [105.56703749838192, -10.462073438638242],
              [105.56730140173835, -10.46163392016922],
              [105.56901868596367, -10.462768619975805],
              [105.56878174518147, -10.463137116284827],
              [105.56842608579529, -10.462899769009084],
              [105.5676313980706, -10.463811829951965],
              [105.5700589371703, -10.465639043706858],
              [105.5729692170558, -10.467038948188872],
              [105.57717321577132, -10.47033021416803],
              [105.57749586284388, -10.471184819223993],
              [105.57887056562419, -10.472085886854131],
              [105.58021748205124, -10.472588633958253],
              [105.58137365407094, -10.474975199046128],
              [105.58579916030305, -10.477248819177589],
              [105.58243408966155, -10.479341696262225],
              [105.58021669964103, -10.482197535687703],
              [105.57932007286314, -10.481836135928859],
              [105.57860009631747, -10.482341453295362],
              [105.57567824665381, -10.481859674784118],
              [105.57564400766489, -10.481600241957551],
              [105.57510487039349, -10.482317593382163]
            ]
          ],
          [
            [
              [105.67483341073336, -10.519117682435024],
              [105.67471304726939, -10.518469566217448],
              [105.67405562576658, -10.517532677690895],
              [105.6731469579658, -10.516576749617229],
              [105.67278603304902, -10.515818313564296],
              [105.67247326323059, -10.515547676084338],
              [105.67235586033473, -10.515122267078937],
              [105.67266793317862, -10.513458989840444],
              [105.67258957614808, -10.512956201367558],
              [105.67192487733126, -10.512182874340112],
              [105.67243273618192, -10.511563854787994],
              [105.67288176767948, -10.510364669993464],
              [105.672763569783, -10.507734597273782],
              [105.67229413986274, -10.506516413401698],
              [105.67149273420239, -10.505955858775792],
              [105.67030007398927, -10.504138397269173],
              [105.67041698495598, -10.503190740260436],
              [105.67128560324807, -10.502566342762464],
              [105.67160806865752, -10.502147820765288],
              [105.66591922898931, -10.502160100108483],
              [105.66542718291822, -10.512037979169349],
              [105.65568520490837, -10.512214668072431],
              [105.65228128625245, -10.509315226816227],
              [105.65098955222612, -10.51108696679006],
              [105.65021592932175, -10.51260452417938],
              [105.65005323566834, -10.513462230997106],
              [105.65024935892086, -10.515045936220929],
              [105.65169787715536, -10.517336597605834],
              [105.65222342297267, -10.519946010200158],
              [105.65298877391285, -10.520202900643312],
              [105.65425405078389, -10.519413130411579],
              [105.65395945626398, -10.518269824992387],
              [105.65603552591887, -10.517739850913358],
              [105.65658952808434, -10.51915464726909],
              [105.65714955211018, -10.519807567665055],
              [105.65759981298106, -10.519760909937986],
              [105.65811560744936, -10.520473370849345],
              [105.65824959204508, -10.521563004728819],
              [105.65852586018036, -10.521587844003761],
              [105.65848960671002, -10.521987296776274],
              [105.65879680612778, -10.522371397222173],
              [105.65974013200156, -10.522360835584038],
              [105.65976547399748, -10.521761027349498],
              [105.66037127531416, -10.521319131972291],
              [105.66039351374974, -10.520651501365649],
              [105.6609508281183, -10.520593120975718],
              [105.66149364001956, -10.518933782767817],
              [105.66238438523123, -10.518661986061772],
              [105.66270412659424, -10.519394564807271],
              [105.66221120098618, -10.520065675790249],
              [105.66201753737948, -10.521310960732194],
              [105.66098513815365, -10.522910312360978],
              [105.66020612381362, -10.523598424127897],
              [105.66040983194824, -10.523905102838171],
              [105.66014443301924, -10.524814276057953],
              [105.6603394797832, -10.525239014169131],
              [105.65977283494846, -10.52542825131269],
              [105.66007306102301, -10.5267021589774],
              [105.65935358719832, -10.527221738692219],
              [105.65856497529342, -10.527388804849409],
              [105.65914285086194, -10.528877474216017],
              [105.65883443915811, -10.529596947141329],
              [105.65774983518679, -10.530638734390038],
              [105.65726648016397, -10.534765814990351],
              [105.66952953665884, -10.534740097077758],
              [105.66950597082393, -10.534356779042071],
              [105.66998393531043, -10.533166966981867],
              [105.66991812292309, -10.532951427366413],
              [105.67019951809334, -10.532739210745945],
              [105.67058917904745, -10.532044363956174],
              [105.67128033591882, -10.531692729935514],
              [105.67192940182048, -10.530513871617813],
              [105.6722136046742, -10.530338270894447],
              [105.67264539886611, -10.529567568988057],
              [105.67287523230618, -10.528467541643693],
              [105.67325525072931, -10.52793045572588],
              [105.67315022700143, -10.527458960962235],
              [105.67340394823367, -10.526921135801729],
              [105.67428918779586, -10.525636860752456],
              [105.67507437688107, -10.525370120934269],
              [105.67569743169116, -10.524641592735293],
              [105.67585825205674, -10.524252645842864],
              [105.67571613579111, -10.523536774702336],
              [105.67596125320932, -10.523204349301238],
              [105.67600464190076, -10.522486550913527],
              [105.67594010205414, -10.52213932986615],
              [105.67567473100411, -10.521851760850041],
              [105.67522270926071, -10.521718600932616],
              [105.67660837567604, -10.520984835082004],
              [105.6768502789173, -10.520311376868506],
              [105.67779510126297, -10.519128800753492],
              [105.67799653231418, -10.518546776612425],
              [105.67828013262209, -10.518264905700789],
              [105.67839974335351, -10.517967210318432],
              [105.67832932104142, -10.517588823265555],
              [105.67483341073336, -10.519117682435024]
            ]
          ],
          [
            [
              [105.70153856035631, -10.415632845679227],
              [105.7009672768184, -10.414465877298369],
              [105.70036281639091, -10.414088647672884],
              [105.69931662875945, -10.413794960568907],
              [105.69793727468556, -10.41381175271016],
              [105.69677885436067, -10.41436548957563],
              [105.69378295182185, -10.414997263313012],
              [105.69073916218264, -10.415944626243459],
              [105.69076930925627, -10.416036476702004],
              [105.68803114971786, -10.416778220438459],
              [105.68652932326972, -10.417382652986987],
              [105.6853341773305, -10.417418276931869],
              [105.6839178296442, -10.41767027866041],
              [105.68357516276359, -10.417435810114512],
              [105.68238599461802, -10.417603475220176],
              [105.6812600263292, -10.417416908163716],
              [105.6802477152599, -10.417449693848255],
              [105.67817566737324, -10.416710872009105],
              [105.67706644805821, -10.415971614898069],
              [105.67571053391407, -10.415782268936539],
              [105.67534338029282, -10.416051496279465],
              [105.67557213634507, -10.416412993165068],
              [105.67716454430831, -10.416919931109874],
              [105.67823401898482, -10.417467980662707],
              [105.68210217037893, -10.419793302818618],
              [105.68290679021624, -10.419979925633015],
              [105.68480952364064, -10.41983519773612],
              [105.68531116727661, -10.419933630332707],
              [105.68615466570532, -10.420985642873063],
              [105.68714663590856, -10.42152364879729],
              [105.68719087895596, -10.421401566728889],
              [105.68748001279243, -10.421443084830457],
              [105.68788164732024, -10.420941289209111],
              [105.68962232920717, -10.420314350227045],
              [105.69048386264024, -10.420103892680459],
              [105.69162806288483, -10.420176228749938],
              [105.69168844066905, -10.420556755289965],
              [105.69011223669042, -10.420700252914287],
              [105.6894892097593, -10.421127127814657],
              [105.6887419783597, -10.42115560124995],
              [105.68771643736375, -10.421521538987804],
              [105.68755972510127, -10.421747641140655],
              [105.68983432189651, -10.422323618240341],
              [105.6912114258667, -10.422304283715675],
              [105.69237655333535, -10.422026074843416],
              [105.69333101371535, -10.4220066279035],
              [105.69433044379502, -10.422230718272999],
              [105.69481294895849, -10.422123708842037],
              [105.69528486370558, -10.42163695797916],
              [105.69567972094245, -10.421477072908544],
              [105.6964306827299, -10.421585144438836],
              [105.69758640868588, -10.422017160763289],
              [105.69789399571141, -10.422258825684196],
              [105.6982989964016, -10.423599957671854],
              [105.69804252414326, -10.424849686164066],
              [105.69718175693259, -10.425878256975921],
              [105.6965008963993, -10.426438252223534],
              [105.69641183923505, -10.427011615893321],
              [105.69668218263666, -10.428926950618234],
              [105.69631993211925, -10.43330533597242],
              [105.69638000143595, -10.434360254222327],
              [105.6970265519339, -10.435964579102006],
              [105.69704381891717, -10.43748818533146],
              [105.70530939611183, -10.435652519747919],
              [105.70406891804618, -10.433616165053934],
              [105.70378042632569, -10.432854067860887],
              [105.70347313068049, -10.431628773049397],
              [105.70341504436885, -10.430279676665691],
              [105.70299938581309, -10.429201037897542],
              [105.70251811092214, -10.428955171344057],
              [105.7011763503084, -10.428896582311381],
              [105.70084705274934, -10.428727533149072],
              [105.70052395781448, -10.42837290708394],
              [105.70019703626429, -10.427627225216213],
              [105.6999197770761, -10.426550611721325],
              [105.69999930592331, -10.425507581609565],
              [105.70074232130116, -10.423800216007123],
              [105.70118611514715, -10.422094231763367],
              [105.7013253661728, -10.420925237209872],
              [105.70104394402284, -10.419025575869568],
              [105.70161800556656, -10.417913199934162],
              [105.70153856035631, -10.415632845679227]
            ]
          ],
          [
            [
              [105.69036967841799, -10.481178275556942],
              [105.69065015987701, -10.481375439325006],
              [105.6912914178647, -10.480757859587527],
              [105.69174092510366, -10.47995662120104],
              [105.69215187570853, -10.479683343311592],
              [105.69231363316771, -10.478992407673445],
              [105.6930549982896, -10.477610915910986],
              [105.69393280675371, -10.476858919903179],
              [105.69485527734923, -10.475734055082512],
              [105.6962992701952, -10.474841368234536],
              [105.69659620025448, -10.475067440709779],
              [105.69699348566087, -10.475022794766119],
              [105.69725680355867, -10.474813401117501],
              [105.69861646068119, -10.474611550082898],
              [105.70063630382242, -10.474063023889414],
              [105.70205913202341, -10.47424148895351],
              [105.70269710568692, -10.47448860196738],
              [105.70332220105877, -10.474042754969105],
              [105.70362598934798, -10.474086186828004],
              [105.70424599815436, -10.473888373749389],
              [105.70447624887981, -10.473274972262118],
              [105.70480550417074, -10.473524320091258],
              [105.70561240199083, -10.473482997142582],
              [105.70577529079708, -10.472734465323242],
              [105.70593928217221, -10.472825857127532],
              [105.70651820724953, -10.472522220823805],
              [105.70590463579038, -10.472034211809387],
              [105.70533211118806, -10.472090680240626],
              [105.70528606679858, -10.471542110879682],
              [105.70189153616553, -10.468841475553631],
              [105.70061002743086, -10.468587392793893],
              [105.70043700866108, -10.467688042868815],
              [105.69943047034002, -10.46696634681939],
              [105.69871245971228, -10.466231240079594],
              [105.67960311898884, -10.476866058721612],
              [105.67896102283299, -10.477747486057581],
              [105.67973253592783, -10.478494747134846],
              [105.68230762409763, -10.480030941174959],
              [105.68290264074432, -10.479361154893354],
              [105.68720825565651, -10.478769799386669],
              [105.68731504295494, -10.479031216117676],
              [105.69036967841799, -10.481178275556942]
            ]
          ],
          [
            [
              [105.57843106064502, -10.474473851287144],
              [105.57678796868987, -10.475296714771503],
              [105.57666116607999, -10.478218744299568],
              [105.57843852142071, -10.480984548997696],
              [105.57889541838892, -10.480611206242145],
              [105.57822640282632, -10.478124320880681],
              [105.57897672339715, -10.476266824254481],
              [105.57972941817815, -10.476576297158317],
              [105.57989296169092, -10.476042718596545],
              [105.57912842103985, -10.475381260936388],
              [105.57843106064502, -10.474473851287144]
            ]
          ]
        ]
      },
      "properties": {
        "OBJECTID": 1,
        "OBJECTID_1": 3527,
        "PA_ID": "CWTH_05",
        "PA_PID": "CWTH_05",
        "NAME": "Christmas Island",
        "TYPE": "National Park (Commonwealth)",
        "TYPE_ABBR": "NPC",
        "IUCN": "II",
        "NRS_PA": "Y",
        "NRS_MPA": " ",
        "GAZ_AREA": 8719,
        "GIS_AREA": 8776.6536515000007,
        "GAZ_DATE": 319766400000,
        "LATEST_GAZ": 629596800000,
        "STATE": "EXT",
        "AUTHORITY": "DCCEEW",
        "DATASOURCE": "DCCEEW",
        "GOVERNANCE": "G",
        "COMMENTS": " ",
        "ENVIRON": "B",
        "OVERLAP": "1",
        "MGT_PLAN": "M",
        "RES_NUMBER": "CWTH05",
        "ZONE_TYPE": " ",
        "EPBC": "Commonwealth",
        "LONGITUDE": 105.61170554,
        "LATITUDE": -10.505850929999999,
        "PA_SYSTEM": "NRS",
        "SHAPE_Leng": 1.3414882021626691,
        "Shape_Length": 1.3361650463155419,
        "Shape_Area": 0.0072465554766179942,
        "InPoly_FID": 1,
        "MaxSimpTol": 8.9932204607556584e-5,
        "MinSimpTol": 8.9932204607556584e-5
      }
    }
  ]
}
