{
  "type": "FeatureCollection",
  "crs": { "type": "name", "properties": { "name": "EPSG:4283" } },
  "features": [
    {
      "type": "Feature",
      "id": 1,
      "geometry": {
        "type": "MultiPolygon",
        "coordinates": [
          [
            [
              [132.35162975590856, -12.199371270267875],
              [132.35071801962101, -12.199084999872809],
              [132.34862799968255, -12.19944500028646],
              [132.3412739995955, -12.201593000416608],
              [132.33488002039667, -12.20186899965455],
              [132.33172099972444, -12.202919000411498],
              [132.32252000979065, -12.208357000275271],
              [132.31959099972494, -12.209628999578626],
              [132.31267900023579, -12.212168999799474],
              [132.30633099977592, -12.213454999748421],
              [132.30511001001901, -12.213983999861682],
              [132.30378298030041, -12.213918999562111],
              [132.30245601982949, -12.214775000365933],
              [132.29897598975015, -12.215448999971329],
              [132.29621500002224, -12.216384999967715],
              [132.29442900039817, -12.217950000192332],
              [132.29410901981544, -12.217998999754002],
              [132.29394100037689, -12.217288000240956],
              [132.29355999989411, -12.217237999733868],
              [132.28972902017824, -12.219099000118717],
              [132.2885089998905, -12.219998000207511],
              [132.28690699975834, -12.221606999763196],
              [132.28617500017617, -12.223096000080318],
              [132.27764530019056, -12.225059399971258],
              [132.27717202027259, -12.22427799972985],
              [132.27708001962731, -12.223186999780182],
              [132.27642399027502, -12.222752000404455],
              [132.27592102013898, -12.222911999688961],
              [132.27576799959354, -12.221984000061525],
              [132.27538599996399, -12.221654000131934],
              [132.27576802027795, -12.221126000064828],
              [132.27413501961553, -12.220295999560676],
              [132.27463902037459, -12.219532000301513],
              [132.27370798013919, -12.218830000304251],
              [132.27299101991969, -12.218766000050834],
              [132.27321999990318, -12.217841999708469],
              [132.27256300018234, -12.21772399966278],
              [132.27245699979073, -12.216965999780996],
              [132.27096100005019, -12.216957000265324],
              [132.27022899956876, -12.214347000413682],
              [132.26952701036328, -12.212928999773453],
              [132.26798602023871, -12.212378000444346],
              [132.26777199957814, -12.211287999641399],
              [132.26641399990626, -12.209977000338256],
              [132.26598698021508, -12.208339000344552],
              [132.26462901022069, -12.206042999684655],
              [132.26313399973435, -12.202295999560704],
              [132.26238600031377, -12.199036000311139],
              [132.26256902044395, -12.191881999554596],
              [132.26275200999737, -12.190524999928755],
              [132.26383500957809, -12.187459999779094],
              [132.26420202020711, -12.183988999792462],
              [132.2618819995547, -12.178652000089699],
              [132.26170001994001, -12.175729000193144],
              [132.26121100008766, -12.174253999622351],
              [132.26050900009034, -12.173549000386004],
              [132.2597769996089, -12.174614000036001],
              [132.25536702017189, -12.174529999759613],
              [132.25504601975808, -12.174353999737264],
              [132.25500099969645, -12.173000000249772],
              [132.25413101983077, -12.172232999952939],
              [132.25358201969448, -12.17119199961104],
              [132.25214700028391, -12.171950000392144],
              [132.25098701963532, -12.172035999861464],
              [132.25010299955386, -12.17305800022649],
              [132.24924802037992, -12.174900999781244],
              [132.24836301014489, -12.174776000312136],
              [132.24644099975239, -12.175565999870969],
              [132.24165000004757, -12.175305999572174],
              [132.24027599963779, -12.17480699994303],
              [132.24044399029799, -12.174092000245594],
              [132.23984899973163, -12.173493999648315],
              [132.23926899996445, -12.170837000327253],
              [132.23878101972832, -12.170183999891663],
              [132.23751498023216, -12.169900000284713],
              [132.23656802019809, -12.170056000284148],
              [132.23646201980648, -12.170490999659876],
              [132.23678202017413, -12.170649999797604],
              [132.23656801030552, -12.170914000280845],
              [132.23524102015699, -12.171128000256942],
              [132.23435600002949, -12.171815999608668],
              [132.23362298960933, -12.17316999999548],
              [132.23276900958217, -12.175979000030793],
              [132.23243301027526, -12.176082000284055],
              [132.23188400024651, -12.175582999755591],
              [132.23171597990859, -12.175964000238366],
              [132.23147200013273, -12.177962999792555],
              [132.23163999978624, -12.178899999835096],
              [132.23113601971158, -12.179646000062803],
              [132.23128898989501, -12.180673999805208],
              [132.23051000972919, -12.181487000424681],
              [132.23011402024588, -12.182729000143183],
              [132.23020500016071, -12.184343999975567],
              [132.23090700015803, -12.185112000318497],
              [132.22941202024856, -12.186024000107466],
              [132.22851200032858, -12.187858000146548],
              [132.22692501977394, -12.187027999642396],
              [132.22645199976, -12.189408999725515],
              [132.22677301006638, -12.190659999859065],
              [132.22610099976134, -12.19162500029347],
              [132.2257499997628, -12.193146000287641],
              [132.22353696965547, -12.194968999819423],
              [132.21964599976309, -12.197354000086989],
              [132.21766301983257, -12.198206999853141],
              [132.21571001970176, -12.199819999593274],
              [132.20363999998608, -12.206245000006675],
              [132.19881901958217, -12.208269999860534],
              [132.19318800002623, -12.210205000060682],
              [132.1905329998981, -12.210615000082157],
              [132.18792400009261, -12.211619999663185],
              [132.18572601024721, -12.211754000446717],
              [132.18354499960208, -12.209892000015714],
              [132.18195801005413, -12.20911600020321],
              [132.18066102038983, -12.210837999573982],
              [132.17734899985658, -12.211995999915416],
              [132.17591500027709, -12.211823000031359],
              [132.17359600035525, -12.21233700035225],
              [132.17211599955385, -12.212109999776601],
              [132.17060500002083, -12.213780000346674],
              [132.16933900009485, -12.213813000069877],
              [132.16842300012138, -12.217706999778159],
              [132.16764500021668, -12.217156000448995],
              [132.1669740196354, -12.217967000076953],
              [132.16755301036324, -12.221219999903042],
              [132.16682099998923, -12.222999000103698],
              [132.16515799974195, -12.224020000422627],
              [132.1638760197626, -12.224431999637034],
              [132.16364700020893, -12.226213999976096],
              [132.16302201995029, -12.227358999718035],
              [132.16068697972037, -12.229715999593679],
              [132.1542480200302, -12.238531999652025],
              [132.15380501039294, -12.239620000362663],
              [132.15113599972665, -12.241376000402056],
              [132.14989902002378, -12.243259000002809],
              [132.14739699007907, -12.245671999762919],
              [132.14495599981956, -12.246837999573984],
              [132.14306302044213, -12.248873999935086],
              [132.14056100038988, -12.250590999974634],
              [132.13706702002696, -12.253810000031422],
              [132.13506799978848, -12.255359000417513],
              [132.13245899009041, -12.256626000389588],
              [132.13088700033484, -12.258557999552011],
              [132.12983400033886, -12.259364999894785],
              [132.12368500995535, -12.26265899981297],
              [132.11985502039295, -12.265384999617993],
              [132.11492699998109, -12.267762000415928],
              [132.10781602009331, -12.272466999752169],
              [132.10488700013502, -12.273086999565351],
              [132.10272000002806, -12.275179999857073],
              [132.10162099970944, -12.275111000272375],
              [132.0990729901265, -12.27606100001509],
              [132.09652497964419, -12.277661000055048],
              [132.09464798032013, -12.278124999868794],
              [132.09176400020851, -12.279665999885935],
              [132.0891550102956, -12.280607000112923],
              [132.08183101968586, -12.284654999728389],
              [132.07934300027932, -12.285324000002561],
              [132.07780200026218, -12.286127000160889],
              [132.0759099696694, -12.287737999808826],
              [132.07119496987207, -12.29071699958979],
              [132.0704629999675, -12.291682000024252],
              [132.0700659996462, -12.293150000272249],
              [132.06950199971755, -12.294329999829586],
              [132.06866299969772, -12.295404999940729],
              [132.06814400004566, -12.296647999705385],
              [132.06797601028472, -12.297888000230955],
              [132.06815900973061, -12.300007999969182],
              [132.06809470011035, -12.301066189952678],
              [132.06430801020656, -12.303975289927621],
              [132.06739081963065, -12.309510820368018],
              [132.06922861031217, -12.311102189614303],
              [132.07313784993187, -12.311451249775303],
              [132.07474498968963, -12.310655579990964],
              [132.07785706035509, -12.30750954013314],
              [132.07923315978258, -12.306837810416596],
              [132.08267769991596, -12.306847550074338],
              [132.08416108036965, -12.308100839881831],
              [132.08496372979232, -12.30944621037429],
              [132.0859829503529, -12.3136390997646],
              [132.08609588991351, -12.315889369898457],
              [132.08688591015664, -12.318381720440016],
              [132.08780293985387, -12.320188960252267],
              [132.09066033960301, -12.323471150273292],
              [132.09077764986876, -12.324493069699372],
              [132.0903096201929, -12.325282919970732],
              [132.08939522011337, -12.325733810367012],
              [132.08467413999961, -12.326496269986819],
              [132.08352379019084, -12.32751366042703],
              [132.08249243957448, -12.327737460315518],
              [132.08063933973381, -12.329993760403681],
              [132.08006271961892, -12.3314598603842],
              [132.07979344011528, -12.335033779685148],
              [132.0804929301047, -12.340713590160021],
              [132.08095138020212, -12.341621749843853],
              [132.08507750032641, -12.343996309881732],
              [132.08588247, -12.345143010241657],
              [132.08587089032937, -12.347843560132162],
              [132.08552472958263, -12.348408900050629],
              [132.08597612989456, -12.350780219831222],
              [132.08792755980915, -12.352932759739019],
              [132.08975240025313, -12.354072309589355],
              [132.09297587983303, -12.354188070323119],
              [132.09584480979015, -12.353965819966561],
              [132.10125027038373, -12.351169199998537],
              [132.10320490997867, -12.34970869020384],
              [132.10320900998784, -12.347667390137872],
              [132.10267626959421, -12.346821700061355],
              [132.09909503970437, -12.344164129670787],
              [132.09669251974401, -12.340426170431385],
              [132.09704447032607, -12.338506009944354],
              [132.09831124996424, -12.336929799670486],
              [132.10141407020319, -12.335472479771056],
              [132.10567535033726, -12.331417030171735],
              [132.10648736979635, -12.331091450410042],
              [132.10843126968746, -12.331428230328527],
              [132.10911944980285, -12.332338780410339],
              [132.11039987035781, -12.335705930284405],
              [132.11246303024473, -12.337297740198494],
              [132.11146779010653, -12.361063009650138],
              [132.02024416983261, -12.476446559660928],
              [131.88807011984022, -12.52369097026201],
              [131.88808410969398, -12.614621450219715],
              [131.9269589302105, -12.614622470050904],
              [131.92697151981986, -12.76289492965725],
              [131.97172004014783, -12.762900800431566],
              [131.97175813992624, -12.921128360285536],
              [132.07345965973559, -12.921160619866669],
              [132.0734664001543, -13.175733269974387],
              [131.87891783988641, -13.17572958994856],
              [131.88034387956645, -13.181496509656142],
              [131.88369098984742, -13.192996989619303],
              [131.88584094960015, -13.198613059744844],
              [131.88714122988392, -13.201464470009228],
              [131.88873882963333, -13.204129860004969],
              [131.88987498004633, -13.205389900123748],
              [131.89118792997908, -13.206516620245793],
              [131.89627516007067, -13.210208730248667],
              [131.8982986598553, -13.2120032896201],
              [131.8992598300772, -13.213261180359154],
              [131.90006245971483, -13.214661629830289],
              [131.90134238024666, -13.217684360045155],
              [131.90354177033646, -13.224538200377594],
              [131.90428199961468, -13.225775350052345],
              [131.90692875026173, -13.229329379946876],
              [131.9076010501484, -13.23083662031371],
              [131.90805063023242, -13.23246759030701],
              [131.90835793037422, -13.235875889560589],
              [131.9082321997563, -13.23779789995308],
              [131.907054509658, -13.245649350137342],
              [131.90689737021751, -13.247868990261622],
              [131.90691482965576, -13.252321319673115],
              [131.90813116002505, -13.261113899586746],
              [131.90769268027304, -13.268080260395664],
              [131.90811255035396, -13.271327369662345],
              [131.90936580958453, -13.27428658975424],
              [131.91057475022455, -13.275655869622653],
              [131.91208129991207, -13.276821050151284],
              [131.91563942981588, -13.278336219840639],
              [131.91722293988687, -13.278517960235604],
              [131.92198075011163, -13.278494290079379],
              [131.923488500394, -13.278837629652855],
              [131.92487286998698, -13.279459429908741],
              [131.92588923969674, -13.280754090328969],
              [131.92721361012002, -13.286143419782945],
              [131.92869207038279, -13.287353349677289],
              [131.93528345976392, -13.288913939626582],
              [131.93619970974885, -13.290108029761711],
              [131.93656599012843, -13.291783160064767],
              [131.93642363014646, -13.295773089556405],
              [131.93581372971994, -13.301012670198531],
              [131.9355693803227, -13.305778020339346],
              [131.93574743979252, -13.307748899891749],
              [131.93692475037699, -13.313849909645569],
              [131.937328410178, -13.319146869732208],
              [131.93815025023389, -13.324186989737768],
              [131.93895030960914, -13.325831240019681],
              [131.94000955000081, -13.327397330222539],
              [131.94263845989713, -13.330282810403332],
              [131.94558803026348, -13.332603189885276],
              [131.94825049026792, -13.335028459995385],
              [131.94897899958119, -13.336500240093983],
              [131.95044746028213, -13.341475920077585],
              [131.95115663956733, -13.342288210232653],
              [131.95404630968949, -13.344255600415579],
              [131.9550407997931, -13.345116480041497],
              [131.95594144024528, -13.346102649617535],
              [131.9571956698444, -13.348321289695718],
              [131.95749657041051, -13.35006789002108],
              [131.95738127012953, -13.351908830128366],
              [131.95651332003376, -13.355664319852451],
              [131.95577182001352, -13.35815698965331],
              [131.95532603956519, -13.36060804962176],
              [131.95541755007991, -13.36213538983634],
              [131.95577642004582, -13.363674979716507],
              [131.95692774022314, -13.366741309963459],
              [131.96187146009981, -13.378523030413476],
              [131.96582362975676, -13.389958670156432],
              [131.96735009043437, -13.393291410170377],
              [131.96837810006934, -13.39664525997074],
              [131.96829745966011, -13.397926700356891],
              [131.96798590032915, -13.399232460209817],
              [131.96436732968857, -13.408238040053448],
              [131.96408482025834, -13.410898790446765],
              [131.96445252966055, -13.411734079863834],
              [131.9650515896592, -13.41251796043548],
              [131.96662988995752, -13.413927740372856],
              [131.97494957036645, -13.419220610342848],
              [131.97724781033821, -13.421352439763211],
              [131.97789862002537, -13.422425920020146],
              [131.97941308014958, -13.426002350228259],
              [131.98040022009411, -13.427477230289924],
              [131.98167666024972, -13.428693680269078],
              [131.98289588014086, -13.42932240980133],
              [131.98426596040576, -13.42969104010939],
              [131.98720498981845, -13.430024249719281],
              [131.98994397043793, -13.430120229864656],
              [131.9924942103396, -13.43055710972277],
              [131.99363116024995, -13.431130619982071],
              [131.99470058006773, -13.431938140133013],
              [131.998232140401, -13.435818560078417],
              [131.9996285699026, -13.437785970046434],
              [132.00074193958892, -13.440255750302583],
              [132.00157621007406, -13.442911860194158],
              [132.01226310036191, -13.454644320279101],
              [132.01549009988821, -13.458575179600814],
              [132.01853687977325, -13.462910300370027],
              [132.02085786000225, -13.466992940072089],
              [132.02207815997917, -13.469798119787356],
              [132.02342155016447, -13.473842069755676],
              [132.02423252011477, -13.478403530098774],
              [132.02438183005745, -13.479760019809021],
              [132.02435203012215, -13.481421449840013],
              [132.02291408971348, -13.490219059661854],
              [132.02259193996611, -13.493123359955064],
              [132.02252364005403, -13.495660369930079],
              [132.02268837966506, -13.498001469791973],
              [132.02304589974858, -13.500426130161713],
              [132.02362144967026, -13.502392790095143],
              [132.02449380014878, -13.504236529791967],
              [132.02576256009411, -13.506121099609004],
              [132.02731031042254, -13.507837390083466],
              [132.02839683984234, -13.508789549997687],
              [132.02987313993356, -13.509565709889557],
              [132.03854319980894, -13.511537920438627],
              [132.04012418997945, -13.512062379874862],
              [132.04082079044713, -13.512458970105342],
              [132.04141395988643, -13.513007870416857],
              [132.04311405986607, -13.515854829936416],
              [132.04607033018169, -13.523124030249733],
              [132.04757673957488, -13.525968700095405],
              [132.04972803032445, -13.528170700017768],
              [132.05228707998481, -13.529492389562108],
              [132.05367455044018, -13.530005479769045],
              [132.0600842003256, -13.531968539716274],
              [132.06422918013266, -13.533444249852209],
              [132.06568715024184, -13.534238090415499],
              [132.06843205019902, -13.536230179579093],
              [132.07100835964809, -13.538418970259215],
              [132.07370046040796, -13.540961330301116],
              [132.0766899696664, -13.544094230164546],
              [132.08397543961496, -13.552262860442625],
              [132.08832228034908, -13.556161159809619],
              [132.09004208987062, -13.557454709567139],
              [132.09142624002902, -13.558265639947308],
              [132.09822772003326, -13.561515020002105],
              [132.10197936965221, -13.563518550340802],
              [132.10393979008927, -13.5647786902843],
              [132.10591539018321, -13.566309959636897],
              [132.10706558980519, -13.567389069649778],
              [132.10863107026773, -13.569249749876008],
              [132.11073318968499, -13.573302389993273],
              [132.11187395991533, -13.575167170228667],
              [132.11255603992936, -13.576024080247066],
              [132.11399931961296, -13.577305279614905],
              [132.11489792040277, -13.577821479677482],
              [132.11594725026544, -13.578086519777003],
              [132.12108672017609, -13.578362699778722],
              [132.12362734002977, -13.578997179576106],
              [132.12605270996471, -13.583071550011994],
              [132.12651085968844, -13.58872191038779],
              [132.12678672043091, -13.590350870396321],
              [132.12724806994254, -13.591909720157389],
              [132.12811416024033, -13.593599680280988],
              [132.13076134975654, -13.597667570202134],
              [132.13336000016398, -13.600407149770092],
              [132.13488871993854, -13.60151764971971],
              [132.13655909012994, -13.602367830111234],
              [132.13809631029653, -13.602773900095372],
              [132.13968596003906, -13.602656689654452],
              [132.14123348014107, -13.602204800111394],
              [132.14375128959045, -13.600924039612664],
              [132.1480213498055, -13.598281389874217],
              [132.14994397983082, -13.597345989725625],
              [132.15258372026256, -13.596671679854069],
              [132.15551535005341, -13.595521959570704],
              [132.15836884044973, -13.594732600329223],
              [132.15977413996461, -13.594586050405837],
              [132.16104684973243, -13.594717989943263],
              [132.16517112984388, -13.598097929975438],
              [132.16716649973421, -13.600360680001359],
              [132.16953782041412, -13.602067690371541],
              [132.17623551955364, -13.603390249560334],
              [132.17953946957095, -13.602777379572387],
              [132.18234792012049, -13.601111079712496],
              [132.18590307956356, -13.596427299879963],
              [132.18760757003338, -13.594405200339679],
              [132.18952878992184, -13.593577830352558],
              [132.19422369976405, -13.59559085033743],
              [132.19680244008066, -13.596956719976617],
              [132.19946398997126, -13.597564759705847],
              [132.2060753496977, -13.596817080443884],
              [132.20809439963693, -13.597092639913342],
              [132.21130422031354, -13.598989359571249],
              [132.21429893035145, -13.601913360413221],
              [132.21630081043406, -13.602875160160465],
              [132.21689048960445, -13.602990150175231],
              [132.21888137997178, -13.602524640399793],
              [132.22098098038805, -13.603026829924204],
              [132.22208346018363, -13.60272299037365],
              [132.22314029039217, -13.603168359831898],
              [132.22415534978961, -13.60323387993958],
              [132.22516704032671, -13.603588409777217],
              [132.22589777006613, -13.604274019630282],
              [132.22662446005086, -13.605311859754465],
              [132.22790496963876, -13.610339339788652],
              [132.22865968969302, -13.61214528008054],
              [132.22969544968532, -13.613611100371941],
              [132.23732342013977, -13.616017410075358],
              [132.24201051037687, -13.616403659900925],
              [132.2463853398117, -13.617436739913558],
              [132.25428708008474, -13.621760600271443],
              [132.25787773037302, -13.624338520406354],
              [132.26113540037852, -13.626966920387019],
              [132.26991780985907, -13.635084960202732],
              [132.2738748196673, -13.637964830412557],
              [132.28203825995774, -13.642137319581593],
              [132.28558932029091, -13.642573640061414],
              [132.28793537991396, -13.640964279877551],
              [132.28931059980437, -13.637013720007133],
              [132.28992238970659, -13.636008679956547],
              [132.29725178973843, -13.636395689709275],
              [132.30660521026232, -13.640742989996966],
              [132.30615289983655, -13.643159009680517],
              [132.30626757958521, -13.646078020184461],
              [132.30664744962019, -13.648421770348364],
              [132.30876819039975, -13.656890949557635],
              [132.30899107028176, -13.659233000002928],
              [132.30898175960056, -13.663306929770954],
              [132.3092475398422, -13.664303480221406],
              [132.31018053970024, -13.665117579812431],
              [132.31228522038668, -13.666070839597523],
              [132.31750622013601, -13.669189729822108],
              [132.32285963966069, -13.672038960129839],
              [132.32504086974041, -13.672767130398711],
              [132.32628841018209, -13.673548439808599],
              [132.32682071980048, -13.674683369841603],
              [132.32693956970547, -13.676428099577095],
              [132.32679584994855, -13.677700269751597],
              [132.3257299401846, -13.681284060011308],
              [132.32542602958767, -13.68283452988959],
              [132.32536429022991, -13.684206940297997],
              [132.32553363976569, -13.685572819829702],
              [132.32619412975532, -13.687621509624933],
              [132.32848104006803, -13.690455609738535],
              [132.3290691301363, -13.691555010255456],
              [132.32922430995404, -13.692541330018344],
              [132.32906334030099, -13.693704899861189],
              [132.32878032994836, -13.694225789888264],
              [132.32760155976428, -13.695522900061746],
              [132.32657565004627, -13.696369990382721],
              [132.32587046015362, -13.697455410039083],
              [132.325903289905, -13.698639139984266],
              [132.32621409020817, -13.699744580348067],
              [132.32734061967392, -13.702259020037673],
              [132.32752778028294, -13.703679289667434],
              [132.32729839020863, -13.705989370113286],
              [132.32608840995226, -13.711667329783381],
              [132.32566349017804, -13.714923790200714],
              [132.32578603989384, -13.717969380282625],
              [132.32663343958166, -13.720652440157949],
              [132.3274310402104, -13.722025120362957],
              [132.32831590025864, -13.72303740984853],
              [132.3298451002712, -13.724264429559753],
              [132.33159024999009, -13.725186650143769],
              [132.33457510975359, -13.725986740095948],
              [132.34143158959625, -13.726783370356202],
              [132.34475183982556, -13.727343059834311],
              [132.34688103962833, -13.727817640171907],
              [132.34901369012971, -13.728807149830061],
              [132.34967836016824, -13.729681510293403],
              [132.35071107955275, -13.733170520103386],
              [132.35194145013793, -13.736345480359603],
              [132.35194302035416, -13.737023009804034],
              [132.35140799028659, -13.738589109899465],
              [132.35159253027109, -13.739431209882412],
              [132.35222307013862, -13.740061300088882],
              [132.3530685695589, -13.740476890296179],
              [132.35463994957411, -13.740439550444876],
              [132.3552198800935, -13.740644510435743],
              [132.35703349969629, -13.743726339598823],
              [132.35722032036153, -13.744369729879111],
              [132.35720519016741, -13.744893520219762],
              [132.3560610097079, -13.748033969891765],
              [132.35584523986597, -13.749964840405028],
              [132.35601620998023, -13.751204279753665],
              [132.3566912204235, -13.752810469827295],
              [132.35811347036042, -13.754542100037838],
              [132.35918597035629, -13.75532145971755],
              [132.36215599040668, -13.756663160076755],
              [132.36500188962555, -13.75753374968275],
              [132.36640627992597, -13.75838889972789],
              [132.36699953030416, -13.759063730306877],
              [132.36793365971073, -13.760645570336749],
              [132.36852787955809, -13.762052139694447],
              [132.36900177011569, -13.76348451959484],
              [132.36956039029985, -13.766417400342732],
              [132.36969157980263, -13.768740449911775],
              [132.36940244956349, -13.774753780262699],
              [132.3680017797584, -13.783456269691044],
              [132.36784166985728, -13.785369689759307],
              [132.3679454597152, -13.787656309590943],
              [132.36884939978006, -13.793592059925572],
              [132.36894664976819, -13.795643739966579],
              [132.36876766039927, -13.796761990273581],
              [132.36851061976938, -13.797427729606],
              [132.36647953959914, -13.801326559572999],
              [132.36615472965707, -13.802271599554615],
              [132.36570396966249, -13.804543240278292],
              [132.36523720982939, -13.808490180377476],
              [132.68931831968473, -13.80847079998739],
              [132.68933679985355, -13.998578349711011],
              [132.99832270013258, -13.998705709900548],
              [132.99902415963732, -13.076228730071762],
              [132.99923100011063, -12.483535530440349],
              [132.9947913799183, -12.47967445041553],
              [132.99279875026218, -12.47661991028059],
              [132.99040437995825, -12.474087860066618],
              [132.98852424020163, -12.471700499978056],
              [132.98759220981265, -12.469473900000423],
              [132.98635483980411, -12.467898400190961],
              [132.98490857976719, -12.466917739861742],
              [132.98439435011926, -12.465422609765596],
              [132.98137327016036, -12.461033730222425],
              [132.9786575100361, -12.458557949689578],
              [132.97687378030082, -12.456676999643776],
              [132.97284031013226, -12.451950500215389],
              [132.97202075975031, -12.450503609753753],
              [132.97157081004491, -12.446886399787502],
              [132.97153867007364, -12.44518227983832],
              [132.97198861977904, -12.443638939785217],
              [132.97293673004617, -12.442352820226404],
              [132.97468830991761, -12.439105370116692],
              [132.97452761995373, -12.438687379618841],
              [132.97398125033453, -12.438349769626143],
              [132.97356343970102, -12.437819239766043],
              [132.97242250039812, -12.435954359705875],
              [132.97222966956372, -12.435279149612995],
              [132.97221358968545, -12.434507480036132],
              [132.97259927024015, -12.432899830362828],
              [132.97264747030454, -12.43209600013023],
              [132.97247071035508, -12.43148509965755],
              [132.97216538962107, -12.43103495030266],
              [132.97110479035382, -12.430552660077183],
              [132.9698192202809, -12.430231129962635],
              [132.96615535978208, -12.428350179916833],
              [132.96589824001182, -12.427851799920575],
              [132.96560899016288, -12.425890470268939],
              [132.96564113013414, -12.425134879670907],
              [132.96588217991871, -12.424475729671144],
              [132.96686242026453, -12.422835940026573],
              [132.96861400013609, -12.420842439826686],
              [132.96875863000685, -12.420440539998879],
              [132.96871042004989, -12.41994216000262],
              [132.96850151023659, -12.41957240014608],
              [132.96726416001309, -12.41888111017505],
              [132.96678207033631, -12.418318429551846],
              [132.96670172040808, -12.417771829706112],
              [132.96711953014221, -12.416421399627836],
              [132.96723202004171, -12.415038819685719],
              [132.96694277019276, -12.412739880041386],
              [132.96707133007783, -12.412402279941205],
              [132.96809978038061, -12.410874999981218],
              [132.96861401002866, -12.410698159992023],
              [132.96970674027386, -12.41084286000995],
              [132.97100838033259, -12.410778539597857],
              [132.97152260998052, -12.410505240124678],
              [132.97186006978643, -12.410055099762985],
              [132.97197254979335, -12.409395970447633],
              [132.9717797198582, -12.407659699735291],
              [132.97206896970727, -12.406952339778627],
              [132.97282424014668, -12.405778749689489],
              [132.97492935970229, -12.405280379585804],
              [132.97510611965174, -12.404878459972906],
              [132.97509005955862, -12.40441224962558],
              [132.97459189989638, -12.403528039787147],
              [132.97383663035623, -12.402708129676398],
              [132.97370806957179, -12.401952539977685],
              [132.97382054957882, -12.401614939877504],
              [132.97420622024094, -12.401357710389959],
              [132.97517039959428, -12.401052260153619],
              [132.97554000027083, -12.400409190032065],
              [132.97534717033568, -12.399717900060978],
              [132.97414194029841, -12.398737239731759],
              [132.9740133903058, -12.398142410144089],
              [132.9743669200974, -12.397209969664345],
              [132.97517039959428, -12.3964865199369],
              [132.97531503036441, -12.396068540230885],
              [132.97523468043619, -12.395554090248993],
              [132.97500969973794, -12.395248630120136],
              [132.97295280003175, -12.393866050178019],
              [132.97216538962107, -12.393030070081636],
              [132.97128156019596, -12.391245580419138],
              [132.97100837044002, -12.389814769835709],
              [132.97112086033951, -12.389573620226372],
              [132.97237429044117, -12.389203870262349],
              [132.9753311003501, -12.387949899668115],
              [132.97592567003369, -12.387338990202181],
              [132.97584532010546, -12.38692099970433],
              [132.97518646957997, -12.386245779718934],
              [132.97409373034145, -12.384220140447098],
              [132.97345095969411, -12.383335939601864],
              [132.97329025983765, -12.382773259877979],
              [132.97337059987331, -12.382451729763488],
              [132.97372413955748, -12.382162350412102],
              [132.97504183970921, -12.381551449939423],
              [132.97533108955815, -12.381101299685213],
              [132.97544358035702, -12.380570779717686],
              [132.97496149967355, -12.37918819977557],
              [132.97504183970921, -12.377902080216757],
              [132.97565249017032, -12.376053280034796],
              [132.97581319002677, -12.373866869860137],
              [132.97560428021347, -12.372355679670818],
              [132.97481686980279, -12.370908790108558],
              [132.974559759925, -12.369960279643124],
              [132.97470438979576, -12.369751279897628],
              [132.97595781989753, -12.369510140180751],
              [132.97682557034386, -12.368979610320707],
              [132.97754869991263, -12.368256159693942],
              [132.97785402963984, -12.367693489862631],
              [132.97795044955365, -12.367002199891544],
              [132.97782188966858, -12.366085840189328],
              [132.9768898502864, -12.362822300308892],
              [132.9768898502864, -12.36200240009066],
              [132.9772273100923, -12.36177734025199],
              [132.97860929018668, -12.361568329714601],
              [132.97955739955444, -12.361021729868867],
              [132.98002342014479, -12.360024989661497],
              [132.98010376018044, -12.359237240206426],
              [132.98061799972095, -12.357806429622997],
              [132.98045729986461, -12.356102319566332],
              [132.97979845023838, -12.355266350261786],
              [132.9793484996336, -12.354944810254722],
              [132.97795043966107, -12.354494669893029],
              [132.97732372011365, -12.353980219911193],
              [132.97717910013546, -12.353642619811012],
              [132.97729159003495, -12.353321079803948],
              [132.97838432028027, -12.352565490105235],
              [132.9788985499282, -12.351809889614685],
              [132.97891461991389, -12.351182910163118],
              [132.97873785007175, -12.350684540059433],
              [132.97828791025893, -12.350009329966554],
              [132.97750049984825, -12.349575259590495],
              [132.97627920971786, -12.348498129884717],
              [132.97282424014668, -12.346359960243944],
              [132.97107265038255, -12.344880919918467],
              [132.970686989613, -12.344044939822084],
              [132.97054234984967, -12.343273270245163],
              [132.97188818978816, -12.336767300270651],
              [132.97139605018765, -12.335536439554971],
              [132.9702149399676, -12.334994859724929],
              [132.96823185031974, -12.33516745041743],
              [132.96568733010622, -12.333074729814882],
              [132.96278375017005, -12.331154590012261],
              [132.96183614981851, -12.329830049617044],
              [132.9616111799121, -12.328029489968912],
              [132.96100053035025, -12.326261060399588],
              [132.96017545992959, -12.325394169705135],
              [132.95776400970135, -12.323720200426862],
              [132.95530336026195, -12.322292409766874],
              [132.95520493036327, -12.321553899992466],
              [132.95697661008251, -12.319584519609862],
              [132.95820693030566, -12.317565920231004],
              [132.95958490032297, -12.313873339882662],
              [132.95968282030594, -12.312596030082659],
              [132.95909275982308, -12.310968509888767],
              [132.95904354982008, -12.309589949916187],
              [132.95978175022765, -12.307965220318636],
              [132.959972070155, -12.306583410196197],
              [132.95924040961722, -12.305257330161623],
              [132.95815771041009, -12.304518820387216],
              [132.95702582008562, -12.304469579807233],
              [132.95515120036771, -12.30497577041541],
              [132.95412224014933, -12.302844850209624],
              [132.95358088964645, -12.300826249931447],
              [132.95235057032266, -12.298610699923813],
              [132.95135877009125, -12.296390899720222],
              [132.95052967970105, -12.295853579978711],
              [132.94949620038938, -12.296542859964973],
              [132.94905327978506, -12.298118359774435],
              [132.94954541039249, -12.301023179875813],
              [132.95020175990339, -12.30298227021558],
              [132.94991251005433, -12.303914709795947],
              [132.94777373966645, -12.303928009869708],
              [132.94511623042979, -12.304174180394057],
              [132.94447645992079, -12.303977239657854],
              [132.94541151023304, -12.300284670101405],
              [132.94531309022705, -12.298709170291943],
              [132.94496860042068, -12.298019890305625],
              [132.94403354021574, -12.297478309576263],
              [132.94300006989738, -12.29737984010751],
              [132.94199266013322, -12.297871909560911],
              [132.94137603007982, -12.297675250312523],
              [132.94078548036566, -12.297084439795015],
              [132.94270479009401, -12.293342629658582],
              [132.94309849979595, -12.29186560021725],
              [132.94300006989738, -12.290240859827747],
              [132.94142524008282, -12.285957479753847],
              [132.94122840007071, -12.284726619937487],
              [132.94137603997228, -12.282314139985544],
              [132.94117918017514, -12.281083280169184],
              [132.94039176976446, -12.280098589977911],
              [132.93906301964273, -12.279261609835373],
              [132.93724212992038, -12.279409319884167],
              [132.93625786960502, -12.279704720196605],
              [132.93300979986248, -12.278375399904746],
              [132.93035228972644, -12.277587649550355],
              [132.92867903990589, -12.277686110025911],
              [132.92769477959052, -12.27699683003965],
              [132.92813770019472, -12.27566749985516],
              [132.92823613009341, -12.273796599733259],
              [132.92774398959352, -12.272270339604461],
              [132.92710422987636, -12.271039479788101],
              [132.92557861006492, -12.269611680134858],
              [132.9241022200415, -12.268823929780467],
              [132.92218291031315, -12.268134649794206],
              [132.92070652028974, -12.267888480169177],
              [132.91888562966813, -12.268479299679882],
              [132.91765529955251, -12.269267040141756],
              [132.91716315995188, -12.270694839794999],
              [132.91726158985057, -12.274141239726362],
              [132.91672025013952, -12.275618270067071],
              [132.91253713997708, -12.280935570120391],
              [132.91155285987668, -12.283151130020599],
              [132.91066704025172, -12.285957479753847],
              [132.90973198993947, -12.287877609663894],
              [132.90825559002349, -12.289059239692108],
              [132.90722210981255, -12.288911540435208],
              [132.90579492979225, -12.288025319712688],
              [132.90451538967352, -12.287532979563309],
              [132.90279292984985, -12.287532979563309],
              [132.90057834031825, -12.286302119747006],
              [132.90018462971693, -12.285514370291935],
              [132.89969250000888, -12.282363369773634],
              [132.8993972300982, -12.27931083962352],
              [132.89836374988727, -12.276849129883374],
              [132.89659207016791, -12.2734519597401],
              [132.8960999395606, -12.271581059618143],
              [132.89624758036166, -12.269020880409244],
              [132.89590308965592, -12.267396140019798],
              [132.89491883023993, -12.266263749672248],
              [132.89354086022263, -12.26552523989784],
              [132.89191682040496, -12.265377529849104],
              [132.88807820004899, -12.266854560189756],
              [132.88463328040166, -12.266559149984744],
              [132.88251710997667, -12.267494610387928],
              [132.88035174034064, -12.269316279822419],
              [132.87730051960341, -12.273205790115071],
              [132.87547962988106, -12.275765980115864],
              [132.87424930965801, -12.276701429727154],
              [132.87341268025102, -12.276553719678361],
              [132.87262526984034, -12.275027460448882],
              [132.87198550023072, -12.272811910441249],
              [132.87173943043047, -12.270104020284236],
              [132.87237920993266, -12.268085420006059],
              [132.8745937895718, -12.26562371026597],
              [132.87547963977363, -12.262472709747726],
              [132.87597177038094, -12.259814050278123],
              [132.87543041987806, -12.257056930333022],
              [132.87454457956881, -12.255382970048004],
              [132.87224010010061, -12.253553890199839],
              [132.86819055994647, -12.252034650178928],
              [132.86480038023342, -12.251788850175274],
              [132.8608141100832, -12.251739620387127],
              [132.86032199026772, -12.251099580081529],
              [132.86071569007709, -12.247899349775139],
              [132.85958378986004, -12.246028439760664],
              [132.8577629001378, -12.236870860102044],
              [132.85663099992075, -12.234803010250687],
              [132.85387506977872, -12.232341299611221],
              [132.8505777801405, -12.230568869857393],
              [132.84624703007648, -12.22943648040922],
              [132.83669966985394, -12.229141070204207],
              [132.83571541043796, -12.228402560429799],
              [132.83492800002728, -12.224463809557108],
              [132.83482958002116, -12.221755920299415],
              [132.83502642003327, -12.218851100198094],
              [132.83433744042065, -12.216734019659214],
              [132.83335318010529, -12.215453920162247],
              [132.83035118016289, -12.2135337902522],
              [132.82597121020331, -12.211662880237668],
              [132.82355975997496, -12.211662890130242],
              [132.81790878985885, -12.214166430036698],
              [132.8096324396854, -12.215306229898545],
              [132.80525246972581, -12.216389379666111],
              [132.80185676997405, -12.21688171981549],
              [132.80069824982445, -12.216585939989102],
              [132.80008509025481, -12.21550315984291],
              [132.79974060044844, -12.213041450102821],
              [132.80047879995675, -12.206296339604364],
              [132.80033116005507, -12.203243810353513],
              [132.79954374964439, -12.200142050415252],
              [132.79767364991903, -12.197187989733891],
              [132.795557490286, -12.19526784993127],
              [132.79344131986113, -12.194430869788789],
              [132.79098065962978, -12.19418470016376],
              [132.78876607009806, -12.194677040313138],
              [132.78664989967319, -12.195661729605092],
              [132.78404161033211, -12.198123450137075],
              [132.78281128021649, -12.20097902965847],
              [132.7821715097075, -12.204326970013597],
              [132.78241756961518, -12.206887160014389],
              [132.7835986897278, -12.209595040278828],
              [132.78369711962648, -12.212253689855856],
              [132.78300813012117, -12.214715410387839],
              [132.78177780000556, -12.216340139985448],
              [132.78095672976929, -12.216529670307978],
              [132.77971085037552, -12.214863109644739],
              [132.77798840044443, -12.211367479925229],
              [132.77734862004286, -12.208216480306248],
              [132.77715177013818, -12.205114720367988],
              [132.77656120963218, -12.201619079856584],
              [132.77503559971319, -12.19743416025824],
              [132.77173831996754, -12.192559959774258],
              [132.77021271994113, -12.188965859686618],
              [132.77040956984581, -12.188079639863417],
              [132.77326392988653, -12.186651850102749],
              [132.78507507975121, -12.182713100129433],
              [132.78703106023534, -12.180855890386965],
              [132.78778180978281, -12.178577420211752],
              [132.78812629958907, -12.175574119849728],
              [132.78758494998556, -12.171980019762032],
              [132.78655147966708, -12.17035529016448],
              [132.78251600041312, -12.16671195039612],
              [132.77705334023949, -12.162527029898456],
              [132.77311628998484, -12.159277569803976],
              [132.76883474992383, -12.154748000319898],
              [132.762732310248, -12.145787359598899],
              [132.75889368989192, -12.140470049653004],
              [132.75604082992038, -12.138092359974394],
              [132.751068800285, -12.1359404900615],
              [132.74590141991462, -12.135645089749062],
              [132.74117696014866, -12.136235900266513],
              [132.73534320012868, -12.13589791975312],
              [132.71622588961316, -12.138156040069134],
              [132.71132599010241, -12.137796000085302],
              [132.70530057016526, -12.135694330329045],
              [132.7005761103992, -12.13269102996702],
              [132.69565479982919, -12.127226019864906],
              [132.68915866034399, -12.119200829654517],
              [132.68095563999088, -12.110183529845983],
              [132.67707482973969, -12.108608030036521],
              [132.66204222017234, -12.100442550083585],
              [132.65411890966004, -12.096996150152165],
              [132.63915810016624, -12.092368110300015],
              [132.63404847965364, -12.089983389721624],
              [132.62896005975904, -12.086904999566059],
              [132.62796570095645, -12.085461088558361],
              [132.55696899991949, -12.085461999571578],
              [132.55504700031884, -12.085937999938722],
              [132.55404002043065, -12.086952999980895],
              [132.55376499965507, -12.087715000047183],
              [132.55567201025508, -12.094777000158388],
              [132.55539802010264, -12.096071999623064],
              [132.55390202036199, -12.096875999827489],
              [132.55481799965105, -12.097911999938788],
              [132.55471101000512, -12.098454999798378],
              [132.55416199997637, -12.098507000397717],
              [132.55272701024342, -12.097785000377428],
              [132.55135401977225, -12.098262999937447],
              [132.54840900986801, -12.1009450004114],
              [132.5377590196631, -12.108492999552254],
              [132.53525602024922, -12.111026000349568],
              [132.53304401986566, -12.112687999651428],
              [132.52162999982465, -12.119640000085894],
              [132.51381801998571, -12.123134000233904],
              [132.51110199995742, -12.124954999673434],
              [132.50235899966822, -12.129643000024373],
              [132.50119900013385, -12.130507000297769],
              [132.49279199015825, -12.134332000421409],
              [132.48349899957918, -12.137012999949945],
              [132.48101201978898, -12.138181999899302],
              [132.47554899988654, -12.138892000265571],
              [132.47158201030163, -12.139944000215394],
              [132.4671570202803, -12.140604000074518],
              [132.46506702012698, -12.141344000025526],
              [132.45932901991841, -12.142101999907311],
              [132.45583501977046, -12.143220000202803],
              [132.44629800984535, -12.144801000265886],
              [132.44225499966853, -12.146060999915164],
              [132.44054601978303, -12.146912999635163],
              [132.43947701005607, -12.148262999837527],
              [132.43825437993576, -12.1509970000115],
              [132.35162975590856, -12.199371270267875]
            ],
            [
              [132.55397335998259, -12.942894339701979],
              [132.55429681014971, -12.942788949950057],
              [132.55491598978119, -12.943526619757677],
              [132.55642266987036, -12.946352089976926],
              [132.55609422037207, -12.946456069591875],
              [132.55397335998259, -12.942894339701979]
            ],
            [
              [132.45278688011047, -12.961692950269367],
              [132.45344744024726, -12.961048919671839],
              [132.45434898991402, -12.962078659602412],
              [132.45449784030313, -12.961935560377754],
              [132.45477078004751, -12.962272510268065],
              [132.45398874038813, -12.963077979964737],
              [132.45278688011047, -12.961692950269367]
            ],
            [
              [132.96334586511966, -12.424449300394826],
              [132.96333049031, -12.424060549554667],
              [132.96349889285966, -12.423691269936114],
              [132.96247125014816, -12.423403360076975],
              [132.96271763021457, -12.422465280847973],
              [132.96438757502665, -12.422929730322778],
              [132.96413200478821, -12.42386775019645],
              [132.96393934302637, -12.423812069571284],
              [132.9636761753153, -12.424542159892724],
              [132.96334586511966, -12.424449300394826]
            ],
            [
              [132.55561713991915, -12.94720153022638],
              [132.55649773987886, -12.94691075962379],
              [132.55919257997368, -12.955592710335281],
              [132.55831192965195, -12.955883519608676],
              [132.55561713991915, -12.94720153022638]
            ],
            [
              [132.4133017904453, -13.376311530053044],
              [132.41064391968121, -13.373763790266651],
              [132.41324602978057, -13.371161490410429],
              [132.41855279967206, -13.376247769918621],
              [132.41937352996445, -13.375424999963741],
              [132.4273387596761, -13.383049790415441],
              [132.42473669993876, -13.385643210365799],
              [132.4167714198652, -13.378027369967128],
              [132.41595985995968, -13.378850219961635],
              [132.4133017904453, -13.376311530053044]
            ],
            [
              [132.52056568995465, -12.90829962033115],
              [132.5198450398168, -12.908137579585571],
              [132.51755351957934, -12.904922950233924],
              [132.51707499031863, -12.903426390215714],
              [132.51899322985378, -12.893584990354952],
              [132.51826817033987, -12.891150920378607],
              [132.51859008986082, -12.890214000375749],
              [132.51845446040511, -12.889387619642889],
              [132.52171295958544, -12.886323279595615],
              [132.5234164599018, -12.885077189760466],
              [132.5239359802614, -12.884457129692748],
              [132.51801735032052, -12.902547380257374],
              [132.51801710030895, -12.903336340199871],
              [132.54070512044507, -12.901164120427779],
              [132.54205754971622, -12.914769549974721],
              [132.53680911974516, -12.915272430178447],
              [132.53635400972985, -12.911095730383579],
              [132.53262103992915, -12.908952559612885],
              [132.53065554281909, -12.906773819755927],
              [132.52877409005225, -12.908313340388304],
              [132.52388044982297, -12.908273319657951],
              [132.5209399895889, -12.908882809993656],
              [132.52056568995465, -12.90829962033115]
            ],
            [
              [132.94222277236315, -12.60286705567006],
              [132.94223814357554, -12.652067275884008],
              [132.94201023468463, -12.709930197720382],
              [132.88451913574954, -12.709480989955694],
              [132.88457004816928, -12.65204836943667],
              [132.88477021657229, -12.635210225171704],
              [132.89287023667214, -12.631920244323794],
              [132.89285544372376, -12.598590192982954],
              [132.88453024327612, -12.598590192982954],
              [132.88453024327612, -12.581920264208804],
              [132.90839345699248, -12.582099216705444],
              [132.86230323990264, -12.50136460978888],
              [132.87397912993299, -12.481746519885917],
              [132.91781139038346, -12.481934899975613],
              [132.91781264044107, -12.494424889596928],
              [132.94223283038093, -12.494431770309916],
              [132.94222277236315, -12.60286705567006]
            ]
          ],
          [
            [
              [132.34511156144947, -12.18471643981178],
              [132.34513400043386, -12.184996000365061],
              [132.34600300003854, -12.185761999716476],
              [132.34967999963237, -12.187803000308179],
              [132.35076400015851, -12.188954000326817],
              [132.35148099994831, -12.189288000440797],
              [132.35219899978404, -12.189017999680914],
              [132.35425800030657, -12.187240999572452],
              [132.35680700004309, -12.185972999554224],
              [132.3575849999479, -12.18522300004139],
              [132.35792000010804, -12.183865000369451],
              [132.35697399965045, -12.179524999878822],
              [132.35721900015676, -12.176768000442792],
              [132.35784399030797, -12.175351999894815],
              [132.35929398972587, -12.173853000015868],
              [132.35941599984858, -12.172776999858627],
              [132.3590490000114, -12.170326000144769],
              [132.35856099999023, -12.169789999708655],
              [132.35824099962247, -12.16863799964392],
              [132.35805800017658, -12.164731000235406],
              [132.35721900015676, -12.159747999770332],
              [132.35646999979076, -12.158592000420413],
              [132.3544870000751, -12.157388999802436],
              [132.35450199986747, -12.157053999642301],
              [132.35543299963331, -12.157232999803057],
              [132.35549499979447, -12.156970000265233],
              [132.35323599004892, -12.15574200029306],
              [132.3525190001518, -12.155959000407506],
              [132.35257999037435, -12.156336999852613],
              [132.35328200026413, -12.1566629995977],
              [132.35317499982648, -12.156997999757834],
              [132.35051999969824, -12.157617000424182],
              [132.34975699958591, -12.157445999733056],
              [132.34936000016398, -12.157830000354181],
              [132.34783399993921, -12.161433000132831],
              [132.34510299990359, -12.165313000094841],
              [132.34382200018524, -12.17294899969653],
              [132.34433999979126, -12.176093999938075],
              [132.34403499022267, -12.179013999696281],
              [132.34488999997359, -12.181955999569652],
              [132.34511156144947, -12.18471643981178]
            ]
          ],
          [
            [
              [132.42138595459824, -12.119352040763999],
              [132.42142699965632, -12.117908000253976],
              [132.4211670002569, -12.11692699998099],
              [132.42072499965911, -12.116263999983573],
              [132.41919899044115, -12.115606000216701],
              [132.41678799976648, -12.113197999787815],
              [132.41695600031926, -12.112817000204359],
              [132.41838999989864, -12.113322000110145],
              [132.41851200012877, -12.112563000182263],
              [132.41823700003761, -12.111698999908867],
              [132.416772999974, -12.110110000376153],
              [132.41535300014095, -12.107987999646411],
              [132.41465200018968, -12.105857000300261],
              [132.41454497996688, -12.100008000368859],
              [132.41404199993838, -12.09631199989883],
              [132.41417799991484, -12.093277000233343],
              [132.41396499998484, -12.092304000329307],
              [132.41304900001137, -12.089796999831606],
              [132.40935699972579, -12.083964999784882],
              [132.40831900042156, -12.083896000200184],
              [132.40799898026876, -12.083196000295118],
              [132.4065800002669, -12.081822999931433],
              [132.40484000006597, -12.079478999755963],
              [132.40160500017066, -12.077115999603677],
              [132.39979000010851, -12.076551999675019],
              [132.39776000002405, -12.076648999651582],
              [132.39461699987476, -12.076073000068845],
              [132.39039100014463, -12.075060000118867],
              [132.38382899970861, -12.074950000442129],
              [132.38218100015308, -12.074545999798033],
              [132.38044199999831, -12.073663999593862],
              [132.37658100001318, -12.072817000104408],
              [132.37636700003713, -12.073080999688329],
              [132.37691699032689, -12.073635000055162],
              [132.37618499973803, -12.074492000005762],
              [132.37360600041666, -12.074306999568307],
              [132.37331599963375, -12.074625999889918],
              [132.37308698997265, -12.075928999723487],
              [132.37247698972135, -12.076352000344514],
              [132.37133299991808, -12.075633999609352],
              [132.37044700042884, -12.075951999884865],
              [132.37005100015358, -12.076435999721582],
              [132.36965399983228, -12.078066000245656],
              [132.36849400029791, -12.077457000040454],
              [132.36760899995545, -12.07771100006255],
              [132.36744200034809, -12.079077000103439],
              [132.36644999956786, -12.079450000217264],
              [132.36592998997708, -12.080892000165647],
              [132.36550399011708, -12.080409000375028],
              [132.36516799980336, -12.080457999936698],
              [132.36460299982866, -12.081865000069627],
              [132.36382499992385, -12.081694000277821],
              [132.36007097969207, -12.083229000018264],
              [132.35346499971001, -12.083497999832787],
              [132.3491609999802, -12.083234000248865],
              [132.34899400037284, -12.083551999625058],
              [132.34975699958591, -12.084436999967522],
              [132.34958899993251, -12.084972000357482],
              [132.34925299972622, -12.085137999918743],
              [132.34754400005568, -12.085005000080628],
              [132.34707099982688, -12.084026999946047],
              [132.34272199982047, -12.082525999974848],
              [132.34025100008364, -12.082222000344984],
              [132.33904500022663, -12.081613000139782],
              [132.33706099956555, -12.082630000274264],
              [132.33660399018208, -12.08306000031871],
              [132.33507799984989, -12.08678999965872],
              [132.33634399977586, -12.08750600030163],
              [132.33687799022709, -12.089187999626461],
              [132.33785500020815, -12.090286999945022],
              [132.33768699965538, -12.090821000288884],
              [132.33652700012101, -12.091457999986687],
              [132.3357490002162, -12.092380000236801],
              [132.33579499963957, -12.093454000301847],
              [132.33611500000734, -12.094009999861555],
              [132.33700100039596, -12.094288000091069],
              [132.337884999793, -12.093916000023341],
              [132.33854100036694, -12.093266999772197],
              [132.33909099965001, -12.093810999677828],
              [132.33941200006382, -12.094908999950349],
              [132.34150200021725, -12.0953080003639],
              [132.34279799972796, -12.096999000103722],
              [132.34446200002139, -12.102973999550386],
              [132.34615599989957, -12.103097999872773],
              [132.34614000006104, -12.1047240002124],
              [132.34908500007271, -12.108002000292061],
              [132.35564599956331, -12.11256400022836],
              [132.3605439997059, -12.114074999761385],
              [132.36162800023214, -12.115650999593925],
              [132.36171899993201, -12.117392999886988],
              [132.3623599998142, -12.118820000042945],
              [132.36345900013282, -12.11957499978638],
              [132.36429800015264, -12.119646000362593],
              [132.36487798013479, -12.121227999572454],
              [132.36469499957468, -12.122737999958701],
              [132.36490899955072, -12.123276999633788],
              [132.36605300014594, -12.124265000229514],
              [132.36759400016308, -12.124716000343085],
              [132.3685859802589, -12.125372000017762],
              [132.3698829996008, -12.127288000240981],
              [132.37185100042336, -12.128610000051424],
              [132.37449099985986, -12.129652000439421],
              [132.37690200042709, -12.131031000180485],
              [132.37864098978991, -12.133338999595082],
              [132.38241099996776, -12.136615999628646],
              [132.38558399970191, -12.138654000081999],
              [132.38778200033914, -12.139710000216269],
              [132.39046700005213, -12.140102000307024],
              [132.39393099971596, -12.1411160003031],
              [132.39547099968695, -12.141133000187779],
              [132.39679899977409, -12.140764000258343],
              [132.39768400011656, -12.141539000024807],
              [132.39899600036517, -12.141765999701079],
              [132.40125500021816, -12.141621000208943],
              [132.40412300027629, -12.140944999611975],
              [132.40751098024759, -12.13934100028689],
              [132.40806000016892, -12.139298000102599],
              [132.40865499972847, -12.13984200000823],
              [132.40987600027722, -12.138716000243164],
              [132.41054699974427, -12.138454999898272],
              [132.41143200008685, -12.137378999740974],
              [132.41204200033815, -12.137226999926042],
              [132.41276000017388, -12.136576999628801],
              [132.41321798981846, -12.135714000300823],
              [132.41321798981846, -12.134621000258903],
              [132.41378199963958, -12.134425000213525],
              [132.41417898017585, -12.13333600035611],
              [132.41379700033133, -12.1321489995766],
              [132.41407200042249, -12.131830000154309],
              [132.41535400018699, -12.131506999648252],
              [132.41607099997668, -12.130531999652021],
              [132.41803899989998, -12.126815000012186],
              [132.42066400044337, -12.122827999612468],
              [132.42134999970278, -12.120617000174377],
              [132.42138595459824, -12.119352040763999]
            ]
          ]
        ]
      },
      "properties": {
        "OBJECTID": 1,
        "OBJECTID_1": 1260,
        "PA_ID": "CWTH_06",
        "PA_PID": "CWTH_06",
        "NAME": "Kakadu",
        "TYPE": "National Park (Commonwealth)",
        "TYPE_ABBR": "NPC",
        "IUCN": "II",
        "NRS_PA": "Y",
        "NRS_MPA": " ",
        "GAZ_AREA": 0,
        "GIS_AREA": 1911121.9154701,
        "GAZ_DATE": 294624000000,
        "LATEST_GAZ": 294624000000,
        "STATE": "NT",
        "AUTHORITY": "DCCEEW",
        "DATASOURCE": "DCCEEW",
        "GOVERNANCE": "J",
        "COMMENTS": "Minor boundary improvements Sep 2020",
        "ENVIRON": "T",
        "OVERLAP": "1",
        "MGT_PLAN": "M",
        "RES_NUMBER": "CWTH_06",
        "ZONE_TYPE": " ",
        "EPBC": "Commonwealth",
        "LONGITUDE": 132.43907442,
        "LATITUDE": -12.978847350000001,
        "PA_SYSTEM": "NRS",
        "SHAPE_Leng": 7.5423439492262014,
        "Shape_Length": 7.5416069059585791,
        "Shape_Area": 1.5924119336533102,
        "InPoly_FID": 1,
        "MaxSimpTol": 8.9932204607556584e-5,
        "MinSimpTol": 8.9932204607556584e-5
      }
    }
  ]
}
