{"type":"FeatureCollection","crs":{"type":"name","properties":{"name":"EPSG:4283"}},"features":[{"type":"Feature","id":1,"geometry":{"type":"Polygon","coordinates":[[[167.95427944633946,-29.005612743932943],[167.95418659403617,-29.006000543290384],[167.95375542037641,-29.005991988039796],[167.95320990691175,-29.005571045966974],[167.95275233275402,-29.005716400691313],[167.95275924584257,-29.005238212273639],[167.9526349199657,-29.005195847909988],[167.95188075659166,-29.005735561646816],[167.95160159623674,-29.005660523114614],[167.9512011847869,-29.005290497958072],[167.95051930801969,-29.005125090150727],[167.94966106610536,-29.005252177845705],[167.94761341232913,-29.004323021690027],[167.94690363229688,-29.003535854096356],[167.94622946811558,-29.003280057228835],[167.94509935395206,-29.001780530347162],[167.94451390699123,-29.001396505444347],[167.94377744587246,-29.001475786078629],[167.94332887842506,-29.001215028550689],[167.94326317665434,-29.002154508024091],[167.94198940298861,-29.002462024902457],[167.9402673460612,-29.002156990152912],[167.9395944382328,-29.002307015056658],[167.93784418036466,-29.002092759673076],[167.93718391880293,-29.001810803325895],[167.93413999876202,-29.006037000906815],[167.93611299981512,-29.007138999565143],[167.93586900115349,-29.007230001063647],[167.93557900037069,-29.007787000669509],[167.93565600122349,-29.008669000873624],[167.93476199866734,-29.008535000989468],[167.93519099956507,-29.009342001332243],[167.93452799956765,-29.009677000593058],[167.93405400019208,-29.00946600075531],[167.93368300106977,-29.008947001103195],[167.93142899874931,-29.008856001403274],[167.92752200024017,-29.011480001001189],[167.92563699964785,-29.012464001412468],[167.92565100029344,-29.012757001434409],[167.92428400020651,-29.014658000965937],[167.92421799986084,-29.016626000889175],[167.92365800011669,-29.018086000768278],[167.92403799785541,-29.017933000907249],[167.92905799912739,-29.021892000915045],[167.9267539998973,-29.024134000883407],[167.92761800017058,-29.02444400078997],[167.92925700021044,-29.023912002336999],[167.93181100017762,-29.023983001114573],[167.93311299996503,-29.023165001163818],[167.93274800022016,-29.024539999821116],[167.93323600024132,-29.025278000579192],[167.93404299968472,-29.025079000395522],[167.93460300032825,-29.023940000930281],[167.93493100016565,-29.023621000608671],[167.93460100023606,-29.023137000771897],[167.93570299889439,-29.022076001306345],[167.93612500036852,-29.022369001328286],[167.93934200123249,-29.018947000903324],[167.93950799989432,-29.019738002306894],[167.93943500102455,-29.020195000898525],[167.93956299973274,-29.020619999813107],[167.93990200007727,-29.020933000757339],[167.94009900016874,-29.021452000409454],[167.9401740000302,-29.022478000958927],[167.94050299991363,-29.022981000772518],[167.94395000239081,-29.020087001314039],[167.94380800213764,-29.019959000807205],[167.94719500004931,-29.017116001002591],[167.94727400009515,-29.017565001023911],[167.94706700044173,-29.018115002105617],[167.94733400016401,-29.018975001295246],[167.94762500009369,-29.018806000696316],[167.94817999870804,-29.019818000600196],[167.94857599988256,-29.02010700133701],[167.94907400036493,-29.02155700075491],[167.9534709998868,-29.017880001161075],[167.95316300007244,-29.016921001003368],[167.95346999894139,-29.016437001166651],[167.95271500009721,-29.016020000822323],[167.95503700015752,-29.01233900104404],[167.95606603771751,-29.012847526292262],[167.95802100016908,-29.011953001229983],[167.95822299959184,-29.011637001046722],[167.95409299799348,-29.009613002138281],[167.95602221195554,-29.00656598663096],[167.9549653727538,-29.00596536990588],[167.95472644267124,-29.00550161021107],[167.95444753772381,-29.005435589181047],[167.95427944633946,-29.005612743932943]]]},"properties":{"OBJECTID":1,"OBJECTID_1":16018,"PA_ID":"CWTH_08","PA_PID":"CWTH_08","NAME":"Norfolk Island (Mt Pitt)","TYPE":"National Park (Commonwealth)","TYPE_ABBR":"NPC","IUCN":"II","NRS_PA":"Y","NRS_MPA":" ","GAZ_AREA":480,"GIS_AREA":493.45912672999998,"GAZ_DATE":507427200000,"LATEST_GAZ":738460800000,"STATE":"EXT","AUTHORITY":"DCCEEW","DATASOURCE":"DCCEEW","GOVERNANCE":"G","COMMENTS":" ","ENVIRON":"T","OVERLAP":"1","MGT_PLAN":"M","RES_NUMBER":"CWTH08","ZONE_TYPE":" ","EPBC":"Commonwealth","LONGITUDE":167.93988243999999,"LATITUDE":-29.013246519999999,"PA_SYSTEM":"NRS","SHAPE_Leng":0.124251264236638,"Shape_Length":0.12374368085089041,"Shape_Area":0.00045716176956238429,"InPoly_FID":1,"MaxSimpTol":8.9932204607556584e-05,"MinSimpTol":8.9932204607556584e-05}}]}