{
  "type": "FeatureCollection",
  "crs": { "type": "name", "properties": { "name": "EPSG:4283" } },
  "features": [
    {
      "type": "Feature",
      "id": 1,
      "geometry": {
        "type": "Polygon",
        "coordinates": [
          [
            [96.828597335798463, -11.835174687361871],
            [96.82925383819412, -11.83510512570092],
            [96.829598051908647, -11.834489402164138],
            [96.829804347392781, -11.833447948563901],
            [96.8298492253615, -11.830897382208377],
            [96.82948241618061, -11.827731041953996],
            [96.828945796111668, -11.827075577375922],
            [96.827835011076957, -11.824247875039362],
            [96.827136987881772, -11.823561043906977],
            [96.825983726068159, -11.822981196125227],
            [96.825249705709382, -11.822796232560052],
            [96.824032878914295, -11.822705125840855],
            [96.822189891050698, -11.823339469840619],
            [96.821307109335692, -11.824101693838031],
            [96.820598701668814, -11.82538789613443],
            [96.819014626823616, -11.831283400008829],
            [96.818050069754975, -11.832802497936882],
            [96.817725892036322, -11.83401088819187],
            [96.817071151412563, -11.835028784950396],
            [96.816921747940398, -11.837429445112775],
            [96.817163847233815, -11.838503705081905],
            [96.817792587557904, -11.838698616048248],
            [96.819603361705845, -11.840640639953506],
            [96.819839925672113, -11.840817473647462],
            [96.819938167612406, -11.840737308080236],
            [96.819937380705596, -11.840947938296665],
            [96.82008592172798, -11.840922001848867],
            [96.820401450666452, -11.841290776048425],
            [96.820282304884529, -11.841435094753763],
            [96.820409843139828, -11.841812673316156],
            [96.821235480133339, -11.842052643914315],
            [96.821443567067035, -11.841817705922324],
            [96.821838625752036, -11.841953456786541],
            [96.823084124732645, -11.841744955265426],
            [96.823223474683687, -11.841804849214384],
            [96.823148460433174, -11.841897527948504],
            [96.824356937922403, -11.841949852303799],
            [96.825261036267875, -11.84181475794469],
            [96.82583505734209, -11.84142605476859],
            [96.826276129839584, -11.840351974663861],
            [96.827546346686631, -11.839041789247119],
            [96.827668683263198, -11.838674007899101],
            [96.827602671226373, -11.837996321073319],
            [96.827193459910291, -11.837251441400838],
            [96.827190502040082, -11.836519718809939],
            [96.827846876732053, -11.835465838377672],
            [96.828213236251884, -11.83519184372858],
            [96.828597335798463, -11.835174687361871]
          ]
        ]
      },
      "properties": {
        "OBJECTID": 1,
        "OBJECTID_1": 3383,
        "PA_ID": "CWTH_10",
        "PA_PID": "CWTH_10",
        "NAME": "Pulu Keeling",
        "TYPE": "National Park (Commonwealth)",
        "TYPE_ABBR": "NPC",
        "IUCN": "II",
        "NRS_PA": "Y",
        "NRS_MPA": " ",
        "GAZ_AREA": 2602,
        "GIS_AREA": 213.09282092000001,
        "GAZ_DATE": 818726400000,
        "LATEST_GAZ": 818726400000,
        "STATE": "EXT",
        "AUTHORITY": "DCCEEW",
        "DATASOURCE": "DCCEEW",
        "GOVERNANCE": "G",
        "COMMENTS": " ",
        "ENVIRON": "T",
        "OVERLAP": "1",
        "MGT_PLAN": "M",
        "RES_NUMBER": "CWTH10",
        "ZONE_TYPE": " ",
        "EPBC": "Commonwealth",
        "LONGITUDE": 96.823386740000004,
        "LATITUDE": -11.83239594,
        "PA_SYSTEM": "NRS",
        "SHAPE_Leng": 0.056117850820358001,
        "Shape_Length": 0.05358378619738309,
        "Shape_Area": 0.00017670478667614325,
        "InPoly_FID": 1,
        "MaxSimpTol": 8.9932204607556584e-5,
        "MinSimpTol": 8.9932204607556584e-5
      }
    }
  ]
}
