{
  "type": "FeatureCollection",
  "crs": { "type": "name", "properties": { "name": "EPSG:4283" } },
  "features": [
    {
      "type": "Feature",
      "id": 1,
      "geometry": {
        "type": "Polygon",
        "coordinates": [
          [
            [131.00964407781203, -25.266666610075958],
            [130.9944844497976, -25.266666610975278],
            [130.97225859216041, -25.266666611874598],
            [130.95003273362386, -25.266666611874598],
            [130.93046552466433, -25.266666612773918],
            [130.92780687688594, -25.266666612773918],
            [130.91241897395651, -25.266666613673237],
            [130.90558101924876, -25.266666613673237],
            [130.8943724232488, -25.266666613673237],
            [130.8833551607122, -25.266666613673237],
            [130.87632587164171, -25.266666613673237],
            [130.86112930397428, -25.266666614572557],
            [130.858279320934, -25.266666614572557],
            [130.84023277022618, -25.266666616371197],
            [130.83890344633699, -25.266666616371197],
            [130.82218621861921, -25.266666617270516],
            [130.81667758780054, -25.266666617270516],
            [130.80413966791139, -25.266666617270516],
            [130.79445173016325, -25.266666618169836],
            [130.78609311720368, -25.266666618169836],
            [130.77222587342533, -25.266666618169836],
            [130.76804656559659, -25.266666618169836],
            [130.75000001488888, -25.266666619069156],
            [130.75000001938542, -25.248749970035021],
            [130.75000001938542, -25.24619044912987],
            [130.75000002208344, -25.230833321000944],
            [130.7500000229827, -25.225714279190584],
            [130.75000002568072, -25.212916671966809],
            [130.75000002837862, -25.205238109251297],
            [130.75000003017726, -25.195000022932675],
            [130.75000003197601, -25.184761938412692],
            [130.75000003377465, -25.17708337479786],
            [130.75000003557329, -25.164285767574086],
            [130.75000003737193, -25.159166725763725],
            [130.75000004006984, -25.1438095976348],
            [130.75000004096921, -25.141250076729591],
            [130.75000004366711, -25.123333427695513],
            [130.73611112622757, -25.116388976170242],
            [130.73333334255983, -25.115000085685381],
            [130.72222220878791, -25.109444523745708],
            [130.7166666423517, -25.106666742775928],
            [130.70833329134837, -25.102500072220494],
            [130.69999994034504, -25.098333400765796],
            [130.69444437300945, -25.09555561979596],
            [130.68333323923764, -25.090000057856344],
            [130.6805554555699, -25.088611168270745],
            [130.66666653813024, -25.081666715846211],
            [130.66666655341874, -25.102604217310727],
            [130.66666655431811, -25.104000049662545],
            [130.66666656870723, -25.123541716976604],
            [130.66666657140524, -25.126333384378142],
            [130.66666658399572, -25.14447921844112],
            [130.66666658669374, -25.14866671819442],
            [130.66666659928421, -25.165416718106997],
            [130.66666660288149, -25.171000052010754],
            [130.66666661367333, -25.186354218672193],
            [130.66666661906925, -25.193333385827032],
            [130.6666666298612, -25.207291720136709],
            [130.66666663615638, -25.215666719643366],
            [130.66666664514958, -25.228229219802586],
            [130.66666665234425, -25.238000054358963],
            [130.66666666043807, -25.249166721267102],
            [130.66666666763263, -25.260333388175297],
            [130.6666666748273, -25.270104221832355],
            [130.66666668471976, -25.282666721991575],
            [130.66666669011568, -25.291041722397551],
            [130.66666670090763, -25.305000055807909],
            [130.66666670630354, -25.311979222962748],
            [130.66666671709538, -25.327333389624187],
            [130.66666672069266, -25.332916722628624],
            [130.66666673328314, -25.349666724339784],
            [130.66666673598115, -25.353854224093141],
            [130.66666675037027, -25.372000058156118],
            [130.66666675126964, -25.374791724658337],
            [130.66666676565876, -25.394333391972395],
            [130.66666676655814, -25.395729225223533],
            [130.66666678184652, -25.41666672578873],
            [130.68871258801562, -25.416666723090771],
            [130.71075839418461, -25.416666720392811],
            [130.7328042003536, -25.416666716795476],
            [130.75485000562333, -25.416666714097516],
            [130.77689581179231, -25.416666711399557],
            [130.79894161796142, -25.416666707802278],
            [130.82098742413041, -25.416666705104319],
            [130.8430332302994, -25.41666670240636],
            [130.86507903556912, -25.416666698809081],
            [130.88712484173811, -25.416666696111065],
            [130.9091706479071, -25.416666693413106],
            [130.93121645407621, -25.416666689815827],
            [130.9532622602452, -25.416666687117868],
            [130.97530806641419, -25.416666684419909],
            [130.99735387168391, -25.41666668082263],
            [131.0193996778529, -25.41666667812467],
            [131.04144548402189, -25.416666675426711],
            [131.063491290191, -25.416666671829375],
            [131.08553709635999, -25.416666669131416],
            [131.10758290162971, -25.416666666433457],
            [131.1296287077987, -25.416666662836178],
            [131.15167451396769, -25.416666660138219],
            [131.17372032013668, -25.41666665744026],
            [131.19576612630578, -25.416666653842981],
            [131.2178119315754, -25.416666651144965],
            [131.2398577377445, -25.416666648447006],
            [131.26190354391349, -25.416666644849727],
            [131.28394935008248, -25.416666642151768],
            [131.30599515625147, -25.416666638554489],
            [131.32804096242057, -25.416666635856529],
            [131.35008676769019, -25.41666663315857],
            [131.37213257385929, -25.416666629561234],
            [131.37215449303551, -25.40001741667038],
            [131.37216179912775, -25.394467679639661],
            [131.37217641131235, -25.383368203779526],
            [131.37219102439633, -25.37226872881871],
            [131.37219832958931, -25.366718991787991],
            [131.37222024786615, -25.350069778897137],
            [131.37224619420658, -25.329218983769067],
            [131.37227213964763, -25.308368187741621],
            [131.37229808508857, -25.287517392613552],
            [131.372324031429, -25.266666598384745],
            [131.35217514456735, -25.266666599284065],
            [131.35009817289244, -25.266666599284065],
            [131.33202625770571, -25.266666599284065],
            [131.32787231615453, -25.266666599284065],
            [131.31187737174332, -25.266666600183385],
            [131.30564645761797, -25.266666600183385],
            [131.29172848578105, -25.266666601082704],
            [131.28342059998079, -25.266666601082704],
            [131.27157959981878, -25.266666601082704],
            [131.26119474234349, -25.266666601982024],
            [131.25143071295713, -25.266666601982024],
            [131.23896888470631, -25.266666601982024],
            [131.23128182699475, -25.266666601982024],
            [131.21674302706913, -25.266666602881401],
            [131.21113294103247, -25.266666602881401],
            [131.19451716943183, -25.26666660378072],
            [131.1909840550702, -25.26666660378072],
            [131.17229131179465, -25.26666660468004],
            [131.17083516820855, -25.26666660468004],
            [131.15068628224617, -25.26666660468004],
            [131.15006545415747, -25.26666660468004],
            [131.1305373962839, -25.26666660557936],
            [131.12783959562091, -25.26666660557936],
            [131.11038850942225, -25.266666607377999],
            [131.10561373798373, -25.266666607377999],
            [131.0902396225606, -25.266666607377999],
            [131.08338788124581, -25.266666607377999],
            [131.07009073659833, -25.266666608277319],
            [131.06116202270925, -25.266666608277319],
            [131.04994185063595, -25.266666609176639],
            [131.03893616507207, -25.266666609176639],
            [131.0297929637743, -25.266666609176639],
            [131.01671030833415, -25.266666610075958],
            [131.00964407781203, -25.266666610075958]
          ]
        ]
      },
      "properties": {
        "OBJECTID": 1,
        "OBJECTID_1": 11494,
        "PA_ID": "CWTH_12",
        "PA_PID": "CWTH_12",
        "NAME": "Uluru-Kata Tjuta",
        "TYPE": "National Park (Commonwealth)",
        "TYPE_ABBR": "NPC",
        "IUCN": "II",
        "NRS_PA": "Y",
        "NRS_MPA": " ",
        "GAZ_AREA": 132566,
        "GIS_AREA": 133301.74011901999,
        "GAZ_DATE": -376790400000,
        "LATEST_GAZ": 738460800000,
        "STATE": "NT",
        "AUTHORITY": "DCCEEW",
        "DATASOURCE": "DCCEEW",
        "GOVERNANCE": "J",
        "COMMENTS": "Digitised from description in Commonwealth Gazettal No. S 440 28 October 1985",
        "ENVIRON": "T",
        "OVERLAP": "1",
        "MGT_PLAN": "M",
        "RES_NUMBER": "CWTH12",
        "ZONE_TYPE": " ",
        "EPBC": "Commonwealth",
        "LONGITUDE": 131.01949528,
        "LATITUDE": -25.34166664,
        "PA_SYSTEM": "NRS",
        "SHAPE_Leng": 2.0492928370561749,
        "Shape_Length": 2.0492928366208765,
        "Shape_Area": 0.1195150443078499
      }
    }
  ]
}
